{"type": "FeatureCollection", "name": "metro_last_mile_br_stations", "features": [{"type": "Feature", "properties": {"data_time": "2026-05-02T17:06:39+08:00", "method_version": "last_mile_service_v1", "station_id": "TRTC-BL23", "station_name": "南港展覽館", "city": "臺北", "town": "南港區", "line_id": "BR", "line_name": "文湖線", "line_color": "#c48c31", "network_degree": 2, "station_type": "轉乘型站", "service_score": 81, "risk_score": 19, "service_status": "good", "status_label": "穩定", "pickup_score": 1, "return_score": 0.923, "bus_score": 0.428, "coverage_score": 1, "bike_station_count": 13, "available_rent_bikes": 229, "available_return_bikes": 236, "bike_offline_rate": 0.0, "bus_stop_count": 260, "bus_eta_sample_count": 172, "median_eta_min": 15.1, "bus_issue_rate": 0.488}, "geometry": {"type": "Point", "coordinates": [121.616861, 25.054919]}}, {"type": "Feature", "properties": {"data_time": "2026-05-02T17:06:39+08:00", "method_version": "last_mile_service_v1", "station_id": "TRTC-BR01", "station_name": "動物園", "city": "臺北", "town": "文山區", "line_id": "BR", "line_name": "文湖線", "line_color": "#c48c31", "network_degree": 1, "station_type": "通勤型站", "service_score": 64, "risk_score": 36, "service_status": "weak", "status_label": "偏弱", "pickup_score": 0.5, "return_score": 1, "bus_score": 0.372, "coverage_score": 0.85, "bike_station_count": 4, "available_rent_bikes": 9, "available_return_bikes": 179, "bike_offline_rate": 0.25, "bus_stop_count": 190, "bus_eta_sample_count": 117, "median_eta_min": 17.1, "bus_issue_rate": 0.484}, "geometry": {"type": "Point", "coordinates": [121.579501, 24.998205]}}, {"type": "Feature", "properties": {"data_time": "2026-05-02T17:06:39+08:00", "method_version": "last_mile_service_v1", "station_id": "TRTC-BR02", "station_name": "木柵", "city": "臺北", "town": "文山區", "line_id": "BR", "line_name": "文湖線", "line_color": "#c48c31", "network_degree": 1, "station_type": "通勤型站", "service_score": 55, "risk_score": 45, "service_status": "weak", "status_label": "偏弱", "pickup_score": 0.2, "return_score": 1, "bus_score": 0.325, "coverage_score": 0.925, "bike_station_count": 5, "available_rent_bikes": 6, "available_return_bikes": 155, "bike_offline_rate": 0.0, "bus_stop_count": 246, "bus_eta_sample_count": 169, "median_eta_min": 19.1, "bus_issue_rate": 0.447}, "geometry": {"type": "Point", "coordinates": [121.573127, 24.99824]}}, {"type": "Feature", "properties": {"data_time": "2026-05-02T17:06:39+08:00", "method_version": "last_mile_service_v1", "station_id": "TRTC-BR03", "station_name": "萬芳社區", "city": "臺北", "town": "文山區", "line_id": "BR", "line_name": "文湖線", "line_color": "#c48c31", "network_degree": 1, "station_type": "一般接駁型站", "service_score": 59, "risk_score": 41, "service_status": "weak", "status_label": "偏弱", "pickup_score": 0.333, "return_score": 1, "bus_score": 0.427, "coverage_score": 0.775, "bike_station_count": 3, "available_rent_bikes": 8, "available_return_bikes": 89, "bike_offline_rate": 0.0, "bus_stop_count": 134, "bus_eta_sample_count": 109, "median_eta_min": 16.2, "bus_issue_rate": 0.381}, "geometry": {"type": "Point", "coordinates": [121.568088, 24.99857]}}, {"type": "Feature", "properties": {"data_time": "2026-05-02T17:06:39+08:00", "method_version": "last_mile_service_v1", "station_id": "TRTC-BR04", "station_name": "萬芳醫院", "city": "臺北", "town": "文山區", "line_id": "BR", "line_name": "文湖線", "line_color": "#c48c31", "network_degree": 1, "station_type": "通勤型站", "service_score": 84, "risk_score": 16, "service_status": "good", "status_label": "穩定", "pickup_score": 1, "return_score": 1, "bus_score": 0.492, "coverage_score": 0.925, "bike_station_count": 5, "available_rent_bikes": 40, "available_return_bikes": 80, "bike_offline_rate": 0.0, "bus_stop_count": 213, "bus_eta_sample_count": 137, "median_eta_min": 13.7, "bus_issue_rate": 0.404}, "geometry": {"type": "Point", "coordinates": [121.558092, 24.99932]}}, {"type": "Feature", "properties": {"data_time": "2026-05-02T17:06:39+08:00", "method_version": "last_mile_service_v1", "station_id": "TRTC-BR05", "station_name": "辛亥", "city": "臺北", "town": "文山區", "line_id": "BR", "line_name": "文湖線", "line_color": "#c48c31", "network_degree": 1, "station_type": "通勤型站", "service_score": 88, "risk_score": 12, "service_status": "good", "status_label": "穩定", "pickup_score": 1, "return_score": 1, "bus_score": 0.687, "coverage_score": 0.85, "bike_station_count": 4, "available_rent_bikes": 35, "available_return_bikes": 64, "bike_offline_rate": 0.0, "bus_stop_count": 69, "bus_eta_sample_count": 31, "median_eta_min": 6.5, "bus_issue_rate": 0.449}, "geometry": {"type": "Point", "coordinates": [121.557046, 25.005455]}}, {"type": "Feature", "properties": {"data_time": "2026-05-02T17:06:39+08:00", "method_version": "last_mile_service_v1", "station_id": "TRTC-BR06", "station_name": "麟光", "city": "臺北", "town": "大安區", "line_id": "BR", "line_name": "文湖線", "line_color": "#c48c31", "network_degree": 1, "station_type": "通勤型站", "service_score": 80, "risk_score": 20, "service_status": "good", "status_label": "穩定", "pickup_score": 0.875, "return_score": 1, "bus_score": 0.453, "coverage_score": 1, "bike_station_count": 8, "available_rent_bikes": 47, "available_return_bikes": 237, "bike_offline_rate": 0.0, "bus_stop_count": 110, "bus_eta_sample_count": 55, "median_eta_min": 13.6, "bus_issue_rate": 0.555}, "geometry": {"type": "Point", "coordinates": [121.558834, 25.018495]}}, {"type": "Feature", "properties": {"data_time": "2026-05-02T17:06:39+08:00", "method_version": "last_mile_service_v1", "station_id": "TRTC-BR07", "station_name": "六張犁", "city": "臺北", "town": "大安區", "line_id": "BR", "line_name": "文湖線", "line_color": "#c48c31", "network_degree": 1, "station_type": "通勤型站", "service_score": 79, "risk_score": 21, "service_status": "watch", "status_label": "需觀察", "pickup_score": 0.733, "return_score": 1, "bus_score": 0.575, "coverage_score": 1, "bike_station_count": 15, "available_rent_bikes": 82, "available_return_bikes": 313, "bike_offline_rate": 0.0, "bus_stop_count": 188, "bus_eta_sample_count": 97, "median_eta_min": 9.8, "bus_issue_rate": 0.511}, "geometry": {"type": "Point", "coordinates": [121.55302, 25.02381]}}, {"type": "Feature", "properties": {"data_time": "2026-05-02T17:06:39+08:00", "method_version": "last_mile_service_v1", "station_id": "TRTC-BR08", "station_name": "科技大樓", "city": "臺北", "town": "大安區", "line_id": "BR", "line_name": "文湖線", "line_color": "#c48c31", "network_degree": 1, "station_type": "通勤型站", "service_score": 81, "risk_score": 19, "service_status": "good", "status_label": "穩定", "pickup_score": 1, "return_score": 0.706, "bus_score": 0.602, "coverage_score": 1, "bike_station_count": 17, "available_rent_bikes": 241, "available_return_bikes": 233, "bike_offline_rate": 0.0, "bus_stop_count": 156, "bus_eta_sample_count": 80, "median_eta_min": 9.4, "bus_issue_rate": 0.455}, "geometry": {"type": "Point", "coordinates": [121.543462, 25.02612]}}, {"type": "Feature", "properties": {"data_time": "2026-05-02T17:06:39+08:00", "method_version": "last_mile_service_v1", "station_id": "TRTC-BR09", "station_name": "大安", "city": "臺北", "town": "大安區", "line_id": "BR", "line_name": "文湖線", "line_color": "#c48c31", "network_degree": 2, "station_type": "轉乘型站", "service_score": 90, "risk_score": 10, "service_status": "good", "status_label": "穩定", "pickup_score": 1, "return_score": 0.933, "bus_score": 0.736, "coverage_score": 1, "bike_station_count": 15, "available_rent_bikes": 195, "available_return_bikes": 257, "bike_offline_rate": 0.0, "bus_stop_count": 99, "bus_eta_sample_count": 81, "median_eta_min": 7.1, "bus_issue_rate": 0.212}, "geometry": {"type": "Point", "coordinates": [121.54237, 25.033311]}}, {"type": "Feature", "properties": {"data_time": "2026-05-02T17:06:39+08:00", "method_version": "last_mile_service_v1", "station_id": "TRTC-BR10", "station_name": "忠孝復興", "city": "臺北", "town": "大安區", "line_id": "BR", "line_name": "文湖線", "line_color": "#c48c31", "network_degree": 1, "station_type": "通勤型站", "service_score": 74, "risk_score": 26, "service_status": "watch", "status_label": "需觀察", "pickup_score": 0.889, "return_score": 0.667, "bus_score": 0.534, "coverage_score": 1, "bike_station_count": 18, "available_rent_bikes": 323, "available_return_bikes": 217, "bike_offline_rate": 0.0, "bus_stop_count": 139, "bus_eta_sample_count": 109, "median_eta_min": 14.0, "bus_issue_rate": 0.223}, "geometry": {"type": "Point", "coordinates": [121.543703, 25.041104]}}, {"type": "Feature", "properties": {"data_time": "2026-05-02T17:06:39+08:00", "method_version": "last_mile_service_v1", "station_id": "TRTC-BR11", "station_name": "南京復興", "city": "臺北", "town": "松山區", "line_id": "BR", "line_name": "文湖線", "line_color": "#c48c31", "network_degree": 2, "station_type": "轉乘型站", "service_score": 76, "risk_score": 24, "service_status": "watch", "status_label": "需觀察", "pickup_score": 0.611, "return_score": 1, "bus_score": 0.574, "coverage_score": 1, "bike_station_count": 18, "available_rent_bikes": 127, "available_return_bikes": 349, "bike_offline_rate": 0.056, "bus_stop_count": 173, "bus_eta_sample_count": 146, "median_eta_min": 13.1, "bus_issue_rate": 0.173}, "geometry": {"type": "Point", "coordinates": [121.544303, 25.052044]}}, {"type": "Feature", "properties": {"data_time": "2026-05-02T17:06:39+08:00", "method_version": "last_mile_service_v1", "station_id": "TRTC-BR12", "station_name": "中山國中", "city": "臺北", "town": "中山區", "line_id": "BR", "line_name": "文湖線", "line_color": "#c48c31", "network_degree": 1, "station_type": "通勤型站", "service_score": 75, "risk_score": 25, "service_status": "watch", "status_label": "需觀察", "pickup_score": 0.611, "return_score": 0.944, "bus_score": 0.587, "coverage_score": 1, "bike_station_count": 18, "available_rent_bikes": 119, "available_return_bikes": 417, "bike_offline_rate": 0.0, "bus_stop_count": 219, "bus_eta_sample_count": 161, "median_eta_min": 11.8, "bus_issue_rate": 0.26}, "geometry": {"type": "Point", "coordinates": [121.544215, 25.06085]}}, {"type": "Feature", "properties": {"data_time": "2026-05-02T17:06:39+08:00", "method_version": "last_mile_service_v1", "station_id": "TRTC-BR13", "station_name": "松山機場", "city": "臺北", "town": "松山區", "line_id": "BR", "line_name": "文湖線", "line_color": "#c48c31", "network_degree": 1, "station_type": "通勤型站", "service_score": 89, "risk_score": 11, "service_status": "good", "status_label": "穩定", "pickup_score": 1, "return_score": 1, "bus_score": 0.642, "coverage_score": 1, "bike_station_count": 8, "available_rent_bikes": 63, "available_return_bikes": 183, "bike_offline_rate": 0.0, "bus_stop_count": 127, "bus_eta_sample_count": 99, "median_eta_min": 10.6, "bus_issue_rate": 0.189}, "geometry": {"type": "Point", "coordinates": [121.55162, 25.063111]}}, {"type": "Feature", "properties": {"data_time": "2026-05-02T17:06:39+08:00", "method_version": "last_mile_service_v1", "station_id": "TRTC-BR14", "station_name": "大直", "city": "臺北", "town": "中山區", "line_id": "BR", "line_name": "文湖線", "line_color": "#c48c31", "network_degree": 1, "station_type": "通勤型站", "service_score": 82, "risk_score": 18, "service_status": "good", "status_label": "穩定", "pickup_score": 1, "return_score": 1, "bus_score": 0.394, "coverage_score": 1, "bike_station_count": 8, "available_rent_bikes": 82, "available_return_bikes": 131, "bike_offline_rate": 0.0, "bus_stop_count": 165, "bus_eta_sample_count": 68, "median_eta_min": 15.2, "bus_issue_rate": 0.6}, "geometry": {"type": "Point", "coordinates": [121.54679, 25.07943]}}, {"type": "Feature", "properties": {"data_time": "2026-05-02T17:06:39+08:00", "method_version": "last_mile_service_v1", "station_id": "TRTC-BR15", "station_name": "劍南路", "city": "臺北", "town": "中山區", "line_id": "BR", "line_name": "文湖線", "line_color": "#c48c31", "network_degree": 1, "station_type": "通勤型站", "service_score": 80, "risk_score": 20, "service_status": "good", "status_label": "穩定", "pickup_score": 1, "return_score": 0.889, "bus_score": 0.419, "coverage_score": 1, "bike_station_count": 9, "available_rent_bikes": 155, "available_return_bikes": 94, "bike_offline_rate": 0.0, "bus_stop_count": 201, "bus_eta_sample_count": 92, "median_eta_min": 14.9, "bus_issue_rate": 0.542}, "geometry": {"type": "Point", "coordinates": [121.555582, 25.08483]}}, {"type": "Feature", "properties": {"data_time": "2026-05-02T17:06:39+08:00", "method_version": "last_mile_service_v1", "station_id": "TRTC-BR16", "station_name": "西湖", "city": "臺北", "town": "內湖區", "line_id": "BR", "line_name": "文湖線", "line_color": "#c48c31", "network_degree": 1, "station_type": "通勤型站", "service_score": 78, "risk_score": 22, "service_status": "watch", "status_label": "需觀察", "pickup_score": 0.95, "return_score": 1, "bus_score": 0.319, "coverage_score": 1, "bike_station_count": 20, "available_rent_bikes": 254, "available_return_bikes": 292, "bike_offline_rate": 0.0, "bus_stop_count": 446, "bus_eta_sample_count": 137, "median_eta_min": 17.0, "bus_issue_rate": 0.682}, "geometry": {"type": "Point", "coordinates": [121.567227, 25.08216]}}, {"type": "Feature", "properties": {"data_time": "2026-05-02T17:06:39+08:00", "method_version": "last_mile_service_v1", "station_id": "TRTC-BR17", "station_name": "港墘", "city": "臺北", "town": "內湖區", "line_id": "BR", "line_name": "文湖線", "line_color": "#c48c31", "network_degree": 1, "station_type": "通勤型站", "service_score": 72, "risk_score": 28, "service_status": "watch", "status_label": "需觀察", "pickup_score": 0.8, "return_score": 0.9, "bus_score": 0.363, "coverage_score": 1, "bike_station_count": 20, "available_rent_bikes": 195, "available_return_bikes": 288, "bike_offline_rate": 0.0, "bus_stop_count": 274, "bus_eta_sample_count": 111, "median_eta_min": 16.4, "bus_issue_rate": 0.588}, "geometry": {"type": "Point", "coordinates": [121.57516, 25.08007]}}, {"type": "Feature", "properties": {"data_time": "2026-05-02T17:06:39+08:00", "method_version": "last_mile_service_v1", "station_id": "TRTC-BR18", "station_name": "文德", "city": "臺北", "town": "內湖區", "line_id": "BR", "line_name": "文湖線", "line_color": "#c48c31", "network_degree": 1, "station_type": "通勤型站", "service_score": 73, "risk_score": 27, "service_status": "watch", "status_label": "需觀察", "pickup_score": 0.769, "return_score": 1, "bus_score": 0.339, "coverage_score": 1, "bike_station_count": 13, "available_rent_bikes": 60, "available_return_bikes": 210, "bike_offline_rate": 0.0, "bus_stop_count": 144, "bus_eta_sample_count": 85, "median_eta_min": 18.7, "bus_issue_rate": 0.438}, "geometry": {"type": "Point", "coordinates": [121.584973, 25.078567]}}, {"type": "Feature", "properties": {"data_time": "2026-05-02T17:06:39+08:00", "method_version": "last_mile_service_v1", "station_id": "TRTC-BR19", "station_name": "內湖", "city": "臺北", "town": "內湖區", "line_id": "BR", "line_name": "文湖線", "line_color": "#c48c31", "network_degree": 1, "station_type": "通勤型站", "service_score": 71, "risk_score": 29, "service_status": "watch", "status_label": "需觀察", "pickup_score": 0.615, "return_score": 0.923, "bus_score": 0.476, "coverage_score": 1, "bike_station_count": 13, "available_rent_bikes": 63, "available_return_bikes": 184, "bike_offline_rate": 0.0, "bus_stop_count": 250, "bus_eta_sample_count": 168, "median_eta_min": 14.1, "bus_issue_rate": 0.42}, "geometry": {"type": "Point", "coordinates": [121.594363, 25.083675]}}, {"type": "Feature", "properties": {"data_time": "2026-05-02T17:06:39+08:00", "method_version": "last_mile_service_v1", "station_id": "TRTC-BR20", "station_name": "大湖公園", "city": "臺北", "town": "內湖區", "line_id": "BR", "line_name": "文湖線", "line_color": "#c48c31", "network_degree": 1, "station_type": "一般接駁型站", "service_score": 62, "risk_score": 38, "service_status": "weak", "status_label": "偏弱", "pickup_score": 0.333, "return_score": 1, "bus_score": 0.5, "coverage_score": 0.775, "bike_station_count": 3, "available_rent_bikes": 7, "available_return_bikes": 82, "bike_offline_rate": 0.0, "bus_stop_count": 116, "bus_eta_sample_count": 77, "median_eta_min": 13.1, "bus_issue_rate": 0.44}, "geometry": {"type": "Point", "coordinates": [121.602214, 25.083805]}}, {"type": "Feature", "properties": {"data_time": "2026-05-02T17:06:39+08:00", "method_version": "last_mile_service_v1", "station_id": "TRTC-BR21", "station_name": "葫洲", "city": "臺北", "town": "內湖區", "line_id": "BR", "line_name": "文湖線", "line_color": "#c48c31", "network_degree": 1, "station_type": "通勤型站", "service_score": 76, "risk_score": 24, "service_status": "watch", "status_label": "需觀察", "pickup_score": 0.6, "return_score": 1, "bus_score": 0.612, "coverage_score": 1, "bike_station_count": 15, "available_rent_bikes": 73, "available_return_bikes": 258, "bike_offline_rate": 0.0, "bus_stop_count": 170, "bus_eta_sample_count": 99, "median_eta_min": 9.2, "bus_issue_rate": 0.441}, "geometry": {"type": "Point", "coordinates": [121.607146, 25.07271]}}, {"type": "Feature", "properties": {"data_time": "2026-05-02T17:06:39+08:00", "method_version": "last_mile_service_v1", "station_id": "TRTC-BR22", "station_name": "東湖", "city": "臺北", "town": "內湖區", "line_id": "BR", "line_name": "文湖線", "line_color": "#c48c31", "network_degree": 1, "station_type": "通勤型站", "service_score": 77, "risk_score": 23, "service_status": "watch", "status_label": "需觀察", "pickup_score": 0.667, "return_score": 1, "bus_score": 0.565, "coverage_score": 1, "bike_station_count": 12, "available_rent_bikes": 52, "available_return_bikes": 249, "bike_offline_rate": 0.0, "bus_stop_count": 138, "bus_eta_sample_count": 86, "median_eta_min": 10.8, "bus_issue_rate": 0.442}, "geometry": {"type": "Point", "coordinates": [121.611535, 25.067455]}}, {"type": "Feature", "properties": {"data_time": "2026-05-02T17:06:39+08:00", "method_version": "last_mile_service_v1", "station_id": "TRTC-BR23", "station_name": "南港軟體園區", "city": "臺北", "town": "南港區", "line_id": "BR", "line_name": "文湖線", "line_color": "#c48c31", "network_degree": 1, "station_type": "通勤型站", "service_score": 75, "risk_score": 25, "service_status": "watch", "status_label": "需觀察", "pickup_score": 1, "return_score": 0.75, "bus_score": 0.36, "coverage_score": 1, "bike_station_count": 12, "available_rent_bikes": 177, "available_return_bikes": 181, "bike_offline_rate": 0.0, "bus_stop_count": 141, "bus_eta_sample_count": 82, "median_eta_min": 17.2, "bus_issue_rate": 0.518}, "geometry": {"type": "Point", "coordinates": [121.61586, 25.059911]}}]}