{"type": "FeatureCollection", "name": "metro_last_mile_o_route", "features": [{"type": "Feature", "properties": {"mrtid": "O", "mrtsys": "臺北捷運", "mrtcode": "中和新蘆線", "mrttype": null, "definition": null, "_ctime": "2024-05-01T08:00:24.435+08:00", "_mtime": "2024-09-23T16:32:17.213+08:00", "ogc_fid": 116, "tdx_update_time": "2024-04-12T00:05:10+08:00", "data_time": "2026-05-02T17:06:39+08:00", "line_id": "O", "line_name": "中和新蘆線", "line_color": "#f8b61c"}, "geometry": {"type": "MultiLineString", "coordinates": [[[121.50981426200008, 24.989567074000036], [121.50813880200008, 24.990367285000048], [121.50777240000002, 24.990546839000046], [121.50652338800012, 24.99116951800005], [121.50614004300007, 24.991371703000027], [121.50596122400009, 24.991471619000038], [121.50580621200004, 24.991566942000077], [121.50567965400012, 24.991657657000076], [121.505503169, 24.991800452000064], [121.50537711000004, 24.99193629800004], [121.50528747700002, 24.992044942000064], [121.50516532300003, 24.992228182000076], [121.50509774500006, 24.992357063000043], [121.50504132300011, 24.99248816100004], [121.50497746500002, 24.992693771000063], [121.50493994700003, 24.992906067000035], [121.50493031300005, 24.99304829400006], [121.50493241600009, 24.99318597100006], [121.50495901400006, 24.99340707300007], [121.5050192110001, 24.993666435000023], [121.50508202200001, 24.993887415000074], [121.50551980500006, 24.995411717000025], [121.50572352200004, 24.996171654000022], [121.50580036600002, 24.996412906000046], [121.50587855700007, 24.996609010000043], [121.50595351800007, 24.996769005000033], [121.50603804600007, 24.996924457000034], [121.50618199200005, 24.997147416000075], [121.50631864000002, 24.99732977700006], [121.50650280000002, 24.99754583200007], [121.50824912300004, 24.999494518000063], [121.510169958, 25.00170667200007], [121.51227538, 25.004067126000052], [121.512564053, 25.00439566500006], [121.51264807400003, 25.00449920400007], [121.51277755300009, 25.004665785000043], [121.51288034700008, 25.00481664800003], [121.5129592180001, 25.004947292000054], [121.51307627900007, 25.00517711300006], [121.51314226600005, 25.005337135000048], [121.51318832800007, 25.00546788400004], [121.51326305000009, 25.00571816100006], [121.51359360000004, 25.00695841600003], [121.51432408500011, 25.009587646000057], [121.51451326100005, 25.010257343000035], [121.51483326700009, 25.01133962800003], [121.51628138900003, 25.01660262200005], [121.51632061300006, 25.016726625000047], [121.51639578800007, 25.016934021000054], [121.51645737800004, 25.017076001000078], [121.51652701500007, 25.01721569800003], [121.51661341800002, 25.01736888100004], [121.51671003900003, 25.017519763000053], [121.51681467600008, 25.01766385800005], [121.516927656, 25.017803405000052], [121.5170483490001, 25.017936148000047], [121.51721159400006, 25.018100350000054], [121.5174784830001, 25.018316103000075], [121.51763314100003, 25.018426160000047], [121.51780109300012, 25.018531660000065], [121.51797551000004, 25.018628114000023], [121.51806486100008, 25.01867068100006], [121.5182485150001, 25.01875355900006], [121.51843677900001, 25.018827388000034], [121.51857072000007, 25.01887206400005], [121.51876385000003, 25.018925556000056], [121.51895973100011, 25.018970016000026], [121.51913541800002, 25.019001011000057], [121.51934267800004, 25.019027375000064], [121.51944675200002, 25.019036034000067], [121.51980288700008, 25.019048334000047], [121.51987749900002, 25.019048074000068], [121.52001432400004, 25.01904496800006], [121.52001679900002, 25.019044911000037], [121.52001684200002, 25.019044910000048], [121.52119725400007, 25.019034713000053], [121.521494544, 25.01904270400007], [121.52167233500006, 25.01905787900006], [121.52187868200008, 25.019088753000062], [121.52214117900007, 25.019144263000044], [121.52225308900006, 25.01917546900006], [121.52241278100007, 25.019229082000038], [121.52265842400004, 25.01932752600004], [121.52280112000005, 25.019390223000073], [121.5235165680001, 25.019726278000064], [121.52379125400012, 25.019867487000056], [121.52397003900012, 25.01997068600008], [121.52414298800011, 25.020082927000033], [121.52422961900004, 25.020141309000053], [121.52444740900012, 25.02031207700003], [121.52464699300003, 25.020500966000043], [121.52484236100008, 25.020714700000042], [121.524961286, 25.020865507000053], [121.52512175700008, 25.021101930000043], [121.52524624600005, 25.02132268200006], [121.5253275010001, 25.021500708000076], [121.52541056200005, 25.02173514800006], [121.52546228400001, 25.021956157000034], [121.52549052600011, 25.022188535000055], [121.52549412200005, 25.022380372000043], [121.52547887500009, 25.022579050000047], [121.52544381300004, 25.022780053000076], [121.52539532300011, 25.022956274000023], [121.52531479200002, 25.023168725000062], [121.52522175800004, 25.023354126000072], [121.5251838150001, 25.02341583200007], [121.52510213900007, 25.023548661000063], [121.52499534300011, 25.023702510000078], [121.52497810900002, 25.023727402000077], [121.52486481900007, 25.023881285000073], [121.5248525080001, 25.02389938300007], [121.52275035200012, 25.026769027000057], [121.52207919500006, 25.027685203000033], [121.52198562900003, 25.027818694000075], [121.52189919500006, 25.027956680000045], [121.52182947200004, 25.02809009500004], [121.52177949000009, 25.02820763400007], [121.52174737100006, 25.028300287000036], [121.52170683500003, 25.028453911000042], [121.52167759200006, 25.028641349000054], [121.52167003300008, 25.028830968000022], [121.52167542300003, 25.028934769000045], [121.52168445200004, 25.02901825400005], [121.5216974980001, 25.02910171600007], [121.5217151820001, 25.029182906000074], [121.52172590500004, 25.029228011000043], [121.52174319900007, 25.029288892000068], [121.52176704300007, 25.029363294000063], [121.52179056500006, 25.029433176000055], [121.522074545, 25.03017024600007], [121.52216334700006, 25.030445299000064], [121.52225279900006, 25.030801593000035], [121.52242302700006, 25.03158420400007], [121.5224585310001, 25.03177818200004], [121.52248489300007, 25.032006057000046], [121.52248585900008, 25.032049934000042], [121.52249025700007, 25.03224979500004], [121.522475557, 25.032507157000055], [121.52240991600002, 25.03316644800003], [121.52239829100006, 25.033347048000053], [121.52240179800003, 25.033588546000033], [121.52242927400005, 25.033789330000047], [121.52245954000011, 25.033915618000037], [121.52249564300007, 25.034030597000026], [121.52254852600004, 25.03416132700005], [121.52261755100005, 25.034298758000034], [121.52266900400002, 25.03438435100003], [121.52274846600005, 25.034499178000033], [121.52283002200011, 25.03460046300006], [121.52300852000008, 25.034793921000073], [121.52325545400004, 25.034969110000077], [121.52334517200006, 25.03502295900006], [121.52347491500007, 25.035092476000045], [121.5236617160001, 25.03517080100005], [121.52382794200003, 25.03522664600007], [121.52400710000006, 25.035266645000036], [121.52411897800005, 25.035286561000078], [121.52427140400005, 25.035301823000054], [121.52444267700002, 25.03530799500004], [121.52465382100002, 25.03529370800004], [121.52476895400002, 25.03527975700007], [121.5249128270001, 25.035249916000055], [121.52512501800004, 25.03519048100003], [121.525400783, 25.035081166000055], [121.52556270900004, 25.035001598000065], [121.52576168900009, 25.034894819000044], [121.52587445800009, 25.034833479000042], [121.52642070400009, 25.034540391000064], [121.52666697200004, 25.034413124000025], [121.5267933780001, 25.034353991000046], [121.52698164300011, 25.034278848000042], [121.52723772200011, 25.03420120000004], [121.52740602900008, 25.03416449300005], [121.52761521800005, 25.034129896000024], [121.53004939800007, 25.033805251000047], [121.53034559100001, 25.033768087000055], [121.5305356450001, 25.033749355000054], [121.5307942070001, 25.033748443000036], [121.53101013800006, 25.033767984000065], [121.53113006000001, 25.033787867000058], [121.5312720280001, 25.033821223000075], [121.53149405700003, 25.033892652000077], [121.53168734000008, 25.03397547800006], [121.53180715200006, 25.03404050300003], [121.53195961100005, 25.03413701900007], [121.5321373380001, 25.03427406700007], [121.53230342300003, 25.034440489000076], [121.5324207860001, 25.03458452800004], [121.53250742700004, 25.034712869000032], [121.53260357800002, 25.034890828000073], [121.5326736830001, 25.035062114000027], [121.53272490400002, 25.035235732000046], [121.532760445, 25.035431964000054], [121.53277394700001, 25.03561925100007], [121.53277293800011, 25.03581562200003], [121.53274697600011, 25.03647251800004], [121.53274396900008, 25.036779483000032], [121.5328537260001, 25.04238101800007], [121.53285921200006, 25.042660951000073], [121.53286121100007, 25.044554619000053], [121.53297462000012, 25.04965064000004], [121.5330129250001, 25.05205734200007], [121.53303842000003, 25.053658934000055], [121.5330904440001, 25.055089716000055], [121.53310347900003, 25.05609632100004], [121.533191611, 25.060434070000042], [121.53318501800004, 25.06070042600004], [121.53315697200003, 25.06094654900005], [121.53311289100009, 25.06113855500007], [121.53304801400009, 25.06132161200003], [121.53299338000011, 25.06143691500006], [121.53291191700009, 25.061579401000074], [121.53261728100006, 25.06199349600007], [121.532328301, 25.062208954000027], [121.53221338600008, 25.06228158600004], [121.53205301000003, 25.062370189000035], [121.53181217600002, 25.062474871000063], [121.53159442000003, 25.06254562400005], [121.53145704200006, 25.06257997000006], [121.53128928700005, 25.062609903000066], [121.53106297400006, 25.06263328700004], [121.53070989800005, 25.062641314000075], [121.52972506600008, 25.062604187000034], [121.52921306300004, 25.062603755000055], [121.52424350800004, 25.062734181000053], [121.52350394000007, 25.062757098000077], [121.52118254600009, 25.062860040000032], [121.51933757000006, 25.06290722500006], [121.51709215800008, 25.06296460300007], [121.51678307500003, 25.062974702000076], [121.51646321900012, 25.063000637000073], [121.51620194400004, 25.063035399000057], [121.51488178200009, 25.063249882000036], [121.51467527400007, 25.063273165000055], [121.51446285200007, 25.063287444000025], [121.51423642800012, 25.06328821900007], [121.51398861100006, 25.063282309000044], [121.51186831400003, 25.06318579300006], [121.5115662710001, 25.063175545000036], [121.51141573400002, 25.063176055000042], [121.51122652400011, 25.06318799400003], [121.51111322200006, 25.063201927000023], [121.51100116400005, 25.063220367000042], [121.51079509200008, 25.063272986000072], [121.51051734900011, 25.063370992000046], [121.50955129700003, 25.063755679000053], [121.50934158300004, 25.063826363000032], [121.50905012200008, 25.063904102000038], [121.50873130600007, 25.06395936100006], [121.50843163800005, 25.063998753000078], [121.50665447200004, 25.064194032000046], [121.50664910600005, 25.06419465500005], [121.50639177800008, 25.064224530000047], [121.50607444700006, 25.06426398700006], [121.5057915110001, 25.064305572000023], [121.50522376300012, 25.064386502000048]], [[121.50522376300012, 25.064386502000048], [121.50493800800007, 25.064421319000076], [121.50431033900009, 25.06446859500005], [121.50411026600011, 25.064476041000034], [121.50389031800012, 25.064470021000034], [121.50367557100003, 25.064448173000073], [121.50346384800002, 25.06440826000005], [121.50321607300009, 25.06433912700004], [121.50298464000002, 25.064249636000056], [121.50274784600003, 25.064137577000054], [121.50197619000005, 25.063740684000038], [121.501664333, 25.06360405500004], [121.50143011000011, 25.063514562000023], [121.49946837200002, 25.062803417000055], [121.49907970000004, 25.062664776000076], [121.49709008100001, 25.06194466200003], [121.49683947900007, 25.061864248000063], [121.49656348400003, 25.06178390900004], [121.49640660200009, 25.061746068000048], [121.49600237100003, 25.061663902000078], [121.49399418900009, 25.06132751100006], [121.49385406300007, 25.061296379000055], [121.49370459300007, 25.06125398900008], [121.49356842300006, 25.061204780000025], [121.49345456000003, 25.06115776000007], [121.493276089, 25.061065812000038], [121.49306430900003, 25.060933354000042], [121.48935400300002, 25.058383828000046], [121.4884052110001, 25.057741424000028], [121.48704144600003, 25.05680243200004], [121.48680977800007, 25.05664745400003], [121.48651887100004, 25.056474614000024], [121.48632242200006, 25.056375941000056], [121.48610370300003, 25.05628411600003], [121.4859039590001, 25.056212550000055], [121.485721624, 25.05615897200005], [121.4827384570001, 25.055408044000046], [121.48251831100004, 25.05534781800003], [121.48247767300006, 25.055335711000055], [121.48247603200002, 25.055335223000043], [121.48234590200002, 25.055296459000033], [121.48215855400008, 25.05522710200006], [121.48206175900009, 25.05518452900003], [121.48183645000006, 25.055072409000047], [121.48161448200005, 25.054939958000034], [121.48150142100008, 25.054859072000056], [121.4813231060001, 25.054721966000045], [121.4811113720001, 25.054514996000023], [121.48094024000011, 25.054314669000064], [121.48078638200002, 25.054096232000063], [121.48067724200007, 25.053909248000025], [121.47849877700003, 25.04972037400006], [121.47831629100006, 25.04938691900003], [121.4781944560001, 25.049195454000028], [121.47804283300002, 25.048992804000022], [121.47788665900009, 25.04881273700005], [121.47766624000008, 25.04859676700005], [121.477509327, 25.048466364000035], [121.47736736900004, 25.048358480000047], [121.47716865500001, 25.048228202000075], [121.47691567800007, 25.048084565000067], [121.47673323600009, 25.047997121000037], [121.47651888000007, 25.04790752300005], [121.4762319670001, 25.047797848000073], [121.4759373820001, 25.047703996000052], [121.47551823000003, 25.047592477000023], [121.47464428800004, 25.047367303000044], [121.47397642800001, 25.047173067000074], [121.47351688200001, 25.047025561000055], [121.47017895600004, 25.04591663100007], [121.47001892100002, 25.045856195000056], [121.46980145000009, 25.045762078000052], [121.4696366820001, 25.04567909000008], [121.46947684100007, 25.045589310000025], [121.46927163500004, 25.04545904200006], [121.46907720900003, 25.045312951000028], [121.46888177000005, 25.045146541000065], [121.46627789800004, 25.042640334000055], [121.46603897900002, 25.042440202000023], [121.46581319000006, 25.042271628000037], [121.46560827200005, 25.042134588000067], [121.46369487100003, 25.040953338000065], [121.46263036000005, 25.040268239000056], [121.46071049700004, 25.03908470500005], [121.45954844900007, 25.038393117000055], [121.45804609400011, 25.037466463000044], [121.45785896000007, 25.037351037000064], [121.45762589000003, 25.037216327000067], [121.45738543100003, 25.037095183000076], [121.4571208750001, 25.03698540000005], [121.45689917300001, 25.03691159600004], [121.456615252, 25.03684249400004], [121.45637166900008, 25.036798101000045], [121.45602717300005, 25.03676303900005], [121.45516013100007, 25.036697979000053], [121.45485278700005, 25.036660553000047], [121.45452370200007, 25.036605131000044], [121.4541831030001, 25.036533942000062], [121.4493281010001, 25.035460735000072], [121.44656806500006, 25.034866382000075], [121.4418966290001, 25.033880390000036], [121.43991928900004, 25.033491237000078], [121.43936680200011, 25.033391295000058], [121.43465828500007, 25.032618068000033], [121.43445147800003, 25.032584102000044], [121.43401518400003, 25.032501856000067], [121.4338069150001, 25.032452806000038], [121.43357381200008, 25.03238803000005], [121.43329791000008, 25.032303056000046], [121.43305091500008, 25.032223054000042], [121.43304662300011, 25.032221664000076], [121.42979625100008, 25.03116881300008], [121.42645479500004, 25.03013560100004], [121.42630609200012, 25.030090666000035], [121.42473809600006, 25.02961683700005], [121.42432952200011, 25.02948933700003], [121.42182653600003, 25.028677093000056], [121.42136837500004, 25.02853618200004], [121.4192587760001, 25.02793044200007], [121.41904486500005, 25.027856557000064], [121.41898354800003, 25.027831051000078], [121.4189316820001, 25.027809476000073], [121.41880481900012, 25.027746625000077], [121.41868350200002, 25.027677], [121.41856774400003, 25.027600582000048], [121.41836283200007, 25.027440902000023], [121.41818507000005, 25.02724955800005], [121.41811323400009, 25.027159477000055], [121.41801053300003, 25.027006287000063], [121.41795228600006, 25.026904891000072], [121.41781849800009, 25.026625395000053], [121.41729991000011, 25.02544867900008], [121.41723192200004, 25.025304421000044], [121.41716491900002, 25.025178217000075], [121.41708210400009, 25.025045281000075], [121.41700091900009, 25.024934916000063], [121.41688466200003, 25.024802074000036], [121.41675915400003, 25.024678289000065], [121.41654465300007, 25.024518646000047], [121.41640160300005, 25.02442876400005], [121.41623655, 25.024334432000046], [121.41587739300007, 25.02413524900004], [121.41443926700003, 25.02333767400006], [121.41443557600007, 25.02333562700005], [121.41372586400007, 25.02294201600006], [121.41332389500008, 25.022742251000068], [121.41289505400005, 25.022565126000075], [121.41045462900001, 25.02160808700006], [121.41021316100012, 25.021529756000064], [121.41001419400004, 25.021478385000023], [121.40991318200008, 25.021458351000035], [121.4098041310001, 25.021440597000037], [121.40960618800011, 25.021416310000063], [121.40809272600006, 25.02126572000003], [121.40809155400007, 25.021265534000065], [121.40805103200012, 25.021259111000063], [121.40660807100005, 25.02111552300005], [121.40635158300006, 25.02108462500007], [121.40612077300011, 25.02104687900004]]]}}, {"type": "Feature", "properties": {"mrtid": "O", "mrtsys": "臺北捷運", "mrtcode": "中和新蘆線", "mrttype": null, "definition": null, "_ctime": "2024-05-01T08:00:24.435+08:00", "_mtime": "2024-09-23T16:32:17.213+08:00", "ogc_fid": 116, "tdx_update_time": "2024-04-12T00:05:10+08:00", "data_time": "2026-05-02T17:06:39+08:00", "line_id": "O", "line_name": "中和新蘆線", "line_color": "#f8b61c"}, "geometry": {"type": "MultiLineString", "coordinates": [[[121.50981426200008, 24.989567074000036], [121.50813880200008, 24.990367285000048], [121.50777240000002, 24.990546839000046], [121.50652338800012, 24.99116951800005], [121.50614004300007, 24.991371703000027], [121.50596122400009, 24.991471619000038], [121.50580621200004, 24.991566942000077], [121.50567965400012, 24.991657657000076], [121.505503169, 24.991800452000064], [121.50537711000004, 24.99193629800004], [121.50528747700002, 24.992044942000064], [121.50516532300003, 24.992228182000076], [121.50509774500006, 24.992357063000043], [121.50504132300011, 24.99248816100004], [121.50497746500002, 24.992693771000063], [121.50493994700003, 24.992906067000035], [121.50493031300005, 24.99304829400006], [121.50493241600009, 24.99318597100006], [121.50495901400006, 24.99340707300007], [121.5050192110001, 24.993666435000023], [121.50508202200001, 24.993887415000074], [121.50551980500006, 24.995411717000025], [121.50572352200004, 24.996171654000022], [121.50580036600002, 24.996412906000046], [121.50587855700007, 24.996609010000043], [121.50595351800007, 24.996769005000033], [121.50603804600007, 24.996924457000034], [121.50618199200005, 24.997147416000075], [121.50631864000002, 24.99732977700006], [121.50650280000002, 24.99754583200007], [121.50824912300004, 24.999494518000063], [121.510169958, 25.00170667200007], [121.51227538, 25.004067126000052], [121.512564053, 25.00439566500006], [121.51264807400003, 25.00449920400007], [121.51277755300009, 25.004665785000043], [121.51288034700008, 25.00481664800003], [121.5129592180001, 25.004947292000054], [121.51307627900007, 25.00517711300006], [121.51314226600005, 25.005337135000048], [121.51318832800007, 25.00546788400004], [121.51326305000009, 25.00571816100006], [121.51359360000004, 25.00695841600003], [121.51432408500011, 25.009587646000057], [121.51451326100005, 25.010257343000035], [121.51483326700009, 25.01133962800003], [121.51628138900003, 25.01660262200005], [121.51632061300006, 25.016726625000047], [121.51639578800007, 25.016934021000054], [121.51645737800004, 25.017076001000078], [121.51652701500007, 25.01721569800003], [121.51661341800002, 25.01736888100004], [121.51671003900003, 25.017519763000053], [121.51681467600008, 25.01766385800005], [121.516927656, 25.017803405000052], [121.5170483490001, 25.017936148000047], [121.51721159400006, 25.018100350000054], [121.5174784830001, 25.018316103000075], [121.51763314100003, 25.018426160000047], [121.51780109300012, 25.018531660000065], [121.51797551000004, 25.018628114000023], [121.51806486100008, 25.01867068100006], [121.5182485150001, 25.01875355900006], [121.51843677900001, 25.018827388000034], [121.51857072000007, 25.01887206400005], [121.51876385000003, 25.018925556000056], [121.51895973100011, 25.018970016000026], [121.51913541800002, 25.019001011000057], [121.51934267800004, 25.019027375000064], [121.51944675200002, 25.019036034000067], [121.51980288700008, 25.019048334000047], [121.51987749900002, 25.019048074000068], [121.52001432400004, 25.01904496800006], [121.52001679900002, 25.019044911000037], [121.52001684200002, 25.019044910000048], [121.52119725400007, 25.019034713000053], [121.521494544, 25.01904270400007], [121.52167233500006, 25.01905787900006], [121.52187868200008, 25.019088753000062], [121.52214117900007, 25.019144263000044], [121.52225308900006, 25.01917546900006], [121.52241278100007, 25.019229082000038], [121.52265842400004, 25.01932752600004], [121.52280112000005, 25.019390223000073], [121.5235165680001, 25.019726278000064], [121.52379125400012, 25.019867487000056], [121.52397003900012, 25.01997068600008], [121.52414298800011, 25.020082927000033], [121.52422961900004, 25.020141309000053], [121.52444740900012, 25.02031207700003], [121.52464699300003, 25.020500966000043], [121.52484236100008, 25.020714700000042], [121.524961286, 25.020865507000053], [121.52512175700008, 25.021101930000043], [121.52524624600005, 25.02132268200006], [121.5253275010001, 25.021500708000076], [121.52541056200005, 25.02173514800006], [121.52546228400001, 25.021956157000034], [121.52549052600011, 25.022188535000055], [121.52549412200005, 25.022380372000043], [121.52547887500009, 25.022579050000047], [121.52544381300004, 25.022780053000076], [121.52539532300011, 25.022956274000023], [121.52531479200002, 25.023168725000062], [121.52522175800004, 25.023354126000072], [121.5251838150001, 25.02341583200007], [121.52510213900007, 25.023548661000063], [121.52499534300011, 25.023702510000078], [121.52497810900002, 25.023727402000077], [121.52486481900007, 25.023881285000073], [121.5248525080001, 25.02389938300007], [121.52275035200012, 25.026769027000057], [121.52207919500006, 25.027685203000033], [121.52198562900003, 25.027818694000075], [121.52189919500006, 25.027956680000045], [121.52182947200004, 25.02809009500004], [121.52177949000009, 25.02820763400007], [121.52174737100006, 25.028300287000036], [121.52170683500003, 25.028453911000042], [121.52167759200006, 25.028641349000054], [121.52167003300008, 25.028830968000022], [121.52167542300003, 25.028934769000045], [121.52168445200004, 25.02901825400005], [121.5216974980001, 25.02910171600007], [121.5217151820001, 25.029182906000074], [121.52172590500004, 25.029228011000043], [121.52174319900007, 25.029288892000068], [121.52176704300007, 25.029363294000063], [121.52179056500006, 25.029433176000055], [121.522074545, 25.03017024600007], [121.52216334700006, 25.030445299000064], [121.52225279900006, 25.030801593000035], [121.52242302700006, 25.03158420400007], [121.5224585310001, 25.03177818200004], [121.52248489300007, 25.032006057000046], [121.52248585900008, 25.032049934000042], [121.52249025700007, 25.03224979500004], [121.522475557, 25.032507157000055], [121.52240991600002, 25.03316644800003], [121.52239829100006, 25.033347048000053], [121.52240179800003, 25.033588546000033], [121.52242927400005, 25.033789330000047], [121.52245954000011, 25.033915618000037], [121.52249564300007, 25.034030597000026], [121.52254852600004, 25.03416132700005], [121.52261755100005, 25.034298758000034], [121.52266900400002, 25.03438435100003], [121.52274846600005, 25.034499178000033], [121.52283002200011, 25.03460046300006], [121.52300852000008, 25.034793921000073], [121.52325545400004, 25.034969110000077], [121.52334517200006, 25.03502295900006], [121.52347491500007, 25.035092476000045], [121.5236617160001, 25.03517080100005], [121.52382794200003, 25.03522664600007], [121.52400710000006, 25.035266645000036], [121.52411897800005, 25.035286561000078], [121.52427140400005, 25.035301823000054], [121.52444267700002, 25.03530799500004], [121.52465382100002, 25.03529370800004], [121.52476895400002, 25.03527975700007], [121.5249128270001, 25.035249916000055], [121.52512501800004, 25.03519048100003], [121.525400783, 25.035081166000055], [121.52556270900004, 25.035001598000065], [121.52576168900009, 25.034894819000044], [121.52587445800009, 25.034833479000042], [121.52642070400009, 25.034540391000064], [121.52666697200004, 25.034413124000025], [121.5267933780001, 25.034353991000046], [121.52698164300011, 25.034278848000042], [121.52723772200011, 25.03420120000004], [121.52740602900008, 25.03416449300005], [121.52761521800005, 25.034129896000024], [121.53004939800007, 25.033805251000047], [121.53034559100001, 25.033768087000055], [121.5305356450001, 25.033749355000054], [121.5307942070001, 25.033748443000036], [121.53101013800006, 25.033767984000065], [121.53113006000001, 25.033787867000058], [121.5312720280001, 25.033821223000075], [121.53149405700003, 25.033892652000077], [121.53168734000008, 25.03397547800006], [121.53180715200006, 25.03404050300003], [121.53195961100005, 25.03413701900007], [121.5321373380001, 25.03427406700007], [121.53230342300003, 25.034440489000076], [121.5324207860001, 25.03458452800004], [121.53250742700004, 25.034712869000032], [121.53260357800002, 25.034890828000073], [121.5326736830001, 25.035062114000027], [121.53272490400002, 25.035235732000046], [121.532760445, 25.035431964000054], [121.53277394700001, 25.03561925100007], [121.53277293800011, 25.03581562200003], [121.53274697600011, 25.03647251800004], [121.53274396900008, 25.036779483000032], [121.5328537260001, 25.04238101800007], [121.53285921200006, 25.042660951000073], [121.53286121100007, 25.044554619000053], [121.53297462000012, 25.04965064000004], [121.5330129250001, 25.05205734200007], [121.53303842000003, 25.053658934000055], [121.5330904440001, 25.055089716000055], [121.53310347900003, 25.05609632100004], [121.533191611, 25.060434070000042], [121.53318501800004, 25.06070042600004], [121.53315697200003, 25.06094654900005], [121.53311289100009, 25.06113855500007], [121.53304801400009, 25.06132161200003], [121.53299338000011, 25.06143691500006], [121.53291191700009, 25.061579401000074], [121.53261728100006, 25.06199349600007], [121.532328301, 25.062208954000027], [121.53221338600008, 25.06228158600004], [121.53205301000003, 25.062370189000035], [121.53181217600002, 25.062474871000063], [121.53159442000003, 25.06254562400005], [121.53145704200006, 25.06257997000006], [121.53128928700005, 25.062609903000066], [121.53106297400006, 25.06263328700004], [121.53070989800005, 25.062641314000075], [121.52972506600008, 25.062604187000034], [121.52921306300004, 25.062603755000055], [121.52424350800004, 25.062734181000053], [121.52350394000007, 25.062757098000077], [121.52118254600009, 25.062860040000032], [121.51933757000006, 25.06290722500006], [121.51709215800008, 25.06296460300007], [121.51678307500003, 25.062974702000076], [121.51646321900012, 25.063000637000073], [121.51620194400004, 25.063035399000057], [121.51488178200009, 25.063249882000036], [121.51467527400007, 25.063273165000055], [121.51446285200007, 25.063287444000025], [121.51423642800012, 25.06328821900007], [121.51398861100006, 25.063282309000044], [121.51186831400003, 25.06318579300006], [121.5115662710001, 25.063175545000036], [121.51141573400002, 25.063176055000042], [121.51122652400011, 25.06318799400003], [121.51111322200006, 25.063201927000023], [121.51100116400005, 25.063220367000042], [121.51079509200008, 25.063272986000072], [121.51051734900011, 25.063370992000046], [121.50955129700003, 25.063755679000053], [121.50934158300004, 25.063826363000032], [121.50905012200008, 25.063904102000038], [121.50873130600007, 25.06395936100006], [121.50843163800005, 25.063998753000078], [121.50665447200004, 25.064194032000046], [121.50664910600005, 25.06419465500005], [121.50639177800008, 25.064224530000047], [121.50607444700006, 25.06426398700006], [121.5057915110001, 25.064305572000023], [121.50522376300012, 25.064386502000048], [121.50522376300012, 25.064386502000048], [121.50459719300011, 25.064476653000042], [121.50431957100011, 25.064529505000053], [121.50425117600003, 25.064545536000026], [121.50412439900003, 25.06458095800008], [121.50407946700011, 25.06459351700005], [121.50391182300007, 25.064652763000026], [121.50374918600005, 25.06472328800004], [121.50359215000003, 25.064802808000024], [121.5033693900001, 25.064941246000046], [121.50321035700006, 25.065061412000034], [121.5030041660001, 25.065238159000046], [121.5021462520001, 25.066019742000037], [121.5018499900001, 25.066289332000053], [121.50122376700006, 25.066846680000026], [121.50062256400008, 25.06738814000005], [121.49955391000003, 25.068380322000053], [121.49938169000006, 25.068534383000042], [121.4991683720001, 25.06871340500004], [121.49896055200009, 25.068872098000043], [121.498768433, 25.069010426000034], [121.49196999600008, 25.073702921000063], [121.4916431360001, 25.073922938000067], [121.491392517, 25.074074986000028], [121.49120025700006, 25.074179451000077], [121.49094609200006, 25.074297655000066], [121.49020485400001, 25.074622857000065], [121.49004902600007, 25.074697857000046], [121.48989292100009, 25.074779625000076], [121.4897158230001, 25.074881773000072], [121.48960829400005, 25.07494983600003], [121.48890850200007, 25.07541483500006], [121.48875586800011, 25.075514654000074], [121.48855745300011, 25.07563267000006], [121.4882910340001, 25.075784764000048], [121.48234074200002, 25.079083688000026], [121.48185767100006, 25.079369645000043], [121.48128627400001, 25.07972810800004], [121.48106901800008, 25.079861984000047], [121.48080845700008, 25.08001404500004], [121.47912568600009, 25.080967448000024], [121.47886231200005, 25.081112747000077], [121.47866439300003, 25.081203661000075], [121.47854251500007, 25.081249197000034], [121.47844505400008, 25.081281110000077], [121.47829835000005, 25.081317692000027], [121.47819775100004, 25.081338327000026], [121.47805131000007, 25.08136137500003], [121.4774728650001, 25.081426425000075], [121.47718801300005, 25.081465708000053], [121.47700041900009, 25.081502430000057], [121.4768688910001, 25.081536707000055], [121.47669286300004, 25.08160047000007], [121.476554, 25.081661848000067], [121.47643559900007, 25.081725426000048], [121.47627985000008, 25.081825243000026], [121.47618533000002, 25.081895511000027], [121.47607416700009, 25.081990662000067], [121.4759458310001, 25.082128757000078], [121.47584687200003, 25.082253214000048], [121.47579234200009, 25.08233238500003], [121.47571538600005, 25.082461282000054], [121.47566895900002, 25.08255170700005], [121.47561243200005, 25.08267377100003], [121.47529621900003, 25.083415095000078], [121.47521353600007, 25.083582385000057], [121.47515970200004, 25.083681864000027], [121.47510245100011, 25.083776842000077], [121.47496752900008, 25.083975897000073], [121.47485532900009, 25.08412070600008], [121.47474891900004, 25.084242929000027], [121.47456470600002, 25.084433110000077], [121.47436401700008, 25.08460979800003], [121.47261192400003, 25.08608922800005], [121.47229693100007, 25.086349786000028], [121.46848530900002, 25.089402079000024], [121.46831912100004, 25.089531253000075], [121.46803859400006, 25.08973527300003], [121.46787108700005, 25.089844139000036], [121.4676995430001, 25.08994849800007], [121.4675217780001, 25.090048374000048], [121.46269125800006, 25.092539445000057], [121.46238329100004, 25.09270291000007], [121.46221974700006, 25.092795958000067], [121.46206582200011, 25.092893488000072], [121.46189465000009, 25.093018158000064], [121.46170471900007, 25.09317899800004], [121.46096294100005, 25.09390581300005], [121.46077595100007, 25.09410727100004], [121.4607099530001, 25.094188729000052], [121.4606470760001, 25.094276941000032], [121.460579015, 25.09438549200007], [121.46051902400006, 25.094498529000077], [121.46047571100007, 25.09459798000006], [121.46043645300006, 25.09470417500006], [121.460405551, 25.09481035400006], [121.4603732920001, 25.094966191000026], [121.46035827500009, 25.095090377000076], [121.46035310500008, 25.095200987000055], [121.46035636900001, 25.095327371000053], [121.46036700700006, 25.09543793200004], [121.46038823200001, 25.095562005000033], [121.46041466800011, 25.095670262000056], [121.46044319900011, 25.09576045700004], [121.46048449700004, 25.095868669000026], [121.46051200200009, 25.095931781000047], [121.4605831560001, 25.096069241000066], [121.46071160600002, 25.096281001000023], [121.4614934650001, 25.09747933400007], [121.461636128, 25.097679769000024], [121.46173789400007, 25.097801335000042], [121.46188034500005, 25.09794759600004], [121.46202236400006, 25.098060014000055], [121.46213077700008, 25.098134153000046], [121.46222394200004, 25.098192548000043], [121.46235650200003, 25.09825985300006], [121.46249398100008, 25.098320366000053], [121.46262335000006, 25.098365105000028], [121.46278927800006, 25.09840973000007], [121.46289068400006, 25.098431981000033], [121.46301220500004, 25.09844965600007], [121.46320001400011, 25.098462614000027], [121.46340759100008, 25.098459710000043], [121.46352529500007, 25.09845032100003], [121.46366742200007, 25.09842956600005], [121.46380799200006, 25.098402040000053], [121.46401136700001, 25.098354006000022]]]}}]}