{"type": "FeatureCollection", "name": "metro_last_mile_o_stations", "features": [{"type": "Feature", "properties": {"data_time": "2026-05-02T17:06:39+08:00", "method_version": "last_mile_service_v1", "station_id": "TRTC-G09", "station_name": "古亭", "city": "臺北", "town": "中正區", "line_id": "O", "line_name": "中和新蘆線", "line_color": "#f8b61c", "network_degree": 2, "station_type": "轉乘型站", "service_score": 82, "risk_score": 18, "service_status": "good", "status_label": "穩定", "pickup_score": 0.941, "return_score": 0.941, "bus_score": 0.507, "coverage_score": 1, "bike_station_count": 17, "available_rent_bikes": 187, "available_return_bikes": 308, "bike_offline_rate": 0.059, "bus_stop_count": 226, "bus_eta_sample_count": 131, "median_eta_min": 13.2, "bus_issue_rate": 0.403}, "geometry": {"type": "Point", "coordinates": [121.522868, 25.026373]}}, {"type": "Feature", "properties": {"data_time": "2026-05-02T17:06:39+08:00", "method_version": "last_mile_service_v1", "station_id": "TRTC-G15", "station_name": "松江南京", "city": "臺北", "town": "中山區", "line_id": "O", "line_name": "中和新蘆線", "line_color": "#f8b61c", "network_degree": 2, "station_type": "轉乘型站", "service_score": 79, "risk_score": 21, "service_status": "watch", "status_label": "需觀察", "pickup_score": 0.792, "return_score": 0.958, "bus_score": 0.547, "coverage_score": 1, "bike_station_count": 24, "available_rent_bikes": 250, "available_return_bikes": 382, "bike_offline_rate": 0.0, "bus_stop_count": 243, "bus_eta_sample_count": 182, "median_eta_min": 13.5, "bus_issue_rate": 0.23}, "geometry": {"type": "Point", "coordinates": [121.53285, 25.052693]}}, {"type": "Feature", "properties": {"data_time": "2026-05-02T17:06:39+08:00", "method_version": "last_mile_service_v1", "station_id": "TRTC-O01", "station_name": "南勢角", "city": "新北", "town": "中和區", "line_id": "O", "line_name": "中和新蘆線", "line_color": "#f8b61c", "network_degree": 1, "station_type": "通勤型站", "service_score": 67, "risk_score": 33, "service_status": "watch", "status_label": "需觀察", "pickup_score": 0.5, "return_score": 1, "bus_score": 0.489, "coverage_score": 0.85, "bike_station_count": 4, "available_rent_bikes": 47, "available_return_bikes": 65, "bike_offline_rate": 0.0, "bus_stop_count": 198, "bus_eta_sample_count": 140, "median_eta_min": 14.7, "bus_issue_rate": 0.313}, "geometry": {"type": "Point", "coordinates": [121.509237, 24.990065]}}, {"type": "Feature", "properties": {"data_time": "2026-05-02T17:06:39+08:00", "method_version": "last_mile_service_v1", "station_id": "TRTC-O02", "station_name": "景安", "city": "新北", "town": "中和區", "line_id": "O", "line_name": "中和新蘆線", "line_color": "#f8b61c", "network_degree": 1, "station_type": "通勤型站", "service_score": 86, "risk_score": 14, "service_status": "good", "status_label": "穩定", "pickup_score": 1, "return_score": 1, "bus_score": 0.523, "coverage_score": 1, "bike_station_count": 6, "available_rent_bikes": 97, "available_return_bikes": 126, "bike_offline_rate": 0.0, "bus_stop_count": 193, "bus_eta_sample_count": 134, "median_eta_min": 13.8, "bus_issue_rate": 0.285}, "geometry": {"type": "Point", "coordinates": [121.505114, 24.99392]}}, {"type": "Feature", "properties": {"data_time": "2026-05-02T17:06:39+08:00", "method_version": "last_mile_service_v1", "station_id": "TRTC-O03", "station_name": "永安市場", "city": "新北", "town": "永和區", "line_id": "O", "line_name": "中和新蘆線", "line_color": "#f8b61c", "network_degree": 1, "station_type": "通勤型站", "service_score": 80, "risk_score": 20, "service_status": "good", "status_label": "穩定", "pickup_score": 0.875, "return_score": 1, "bus_score": 0.443, "coverage_score": 1, "bike_station_count": 8, "available_rent_bikes": 114, "available_return_bikes": 155, "bike_offline_rate": 0.0, "bus_stop_count": 119, "bus_eta_sample_count": 86, "median_eta_min": 16.8, "bus_issue_rate": 0.261}, "geometry": {"type": "Point", "coordinates": [121.511225, 25.002895]}}, {"type": "Feature", "properties": {"data_time": "2026-05-02T17:06:39+08:00", "method_version": "last_mile_service_v1", "station_id": "TRTC-O04", "station_name": "頂溪", "city": "新北", "town": "永和區", "line_id": "O", "line_name": "中和新蘆線", "line_color": "#f8b61c", "network_degree": 1, "station_type": "通勤型站", "service_score": 64, "risk_score": 36, "service_status": "weak", "status_label": "偏弱", "pickup_score": 0.4, "return_score": 0.9, "bus_score": 0.476, "coverage_score": 1, "bike_station_count": 10, "available_rent_bikes": 54, "available_return_bikes": 133, "bike_offline_rate": 0.0, "bus_stop_count": 165, "bus_eta_sample_count": 108, "median_eta_min": 14.7, "bus_issue_rate": 0.358}, "geometry": {"type": "Point", "coordinates": [121.515398, 25.01308]}}, {"type": "Feature", "properties": {"data_time": "2026-05-02T17:06:39+08:00", "method_version": "last_mile_service_v1", "station_id": "TRTC-O06", "station_name": "東門", "city": "臺北", "town": "大安區", "line_id": "O", "line_name": "中和新蘆線", "line_color": "#f8b61c", "network_degree": 2, "station_type": "轉乘型站", "service_score": 77, "risk_score": 23, "service_status": "watch", "status_label": "需觀察", "pickup_score": 0.769, "return_score": 0.846, "bus_score": 0.58, "coverage_score": 1, "bike_station_count": 13, "available_rent_bikes": 111, "available_return_bikes": 157, "bike_offline_rate": 0.077, "bus_stop_count": 147, "bus_eta_sample_count": 101, "median_eta_min": 11.0, "bus_issue_rate": 0.367}, "geometry": {"type": "Point", "coordinates": [121.528766, 25.033894]}}, {"type": "Feature", "properties": {"data_time": "2026-05-02T17:06:39+08:00", "method_version": "last_mile_service_v1", "station_id": "TRTC-O07", "station_name": "忠孝新生", "city": "臺北", "town": "大安區", "line_id": "O", "line_name": "中和新蘆線", "line_color": "#f8b61c", "network_degree": 1, "station_type": "通勤型站", "service_score": 81, "risk_score": 19, "service_status": "good", "status_label": "穩定", "pickup_score": 0.9, "return_score": 0.95, "bus_score": 0.521, "coverage_score": 1, "bike_station_count": 20, "available_rent_bikes": 223, "available_return_bikes": 382, "bike_offline_rate": 0.0, "bus_stop_count": 196, "bus_eta_sample_count": 133, "median_eta_min": 13.6, "bus_issue_rate": 0.311}, "geometry": {"type": "Point", "coordinates": [121.532856, 25.041797]}}, {"type": "Feature", "properties": {"data_time": "2026-05-02T17:06:39+08:00", "method_version": "last_mile_service_v1", "station_id": "TRTC-O09", "station_name": "行天宮", "city": "臺北", "town": "中山區", "line_id": "O", "line_name": "中和新蘆線", "line_color": "#f8b61c", "network_degree": 1, "station_type": "通勤型站", "service_score": 79, "risk_score": 21, "service_status": "watch", "status_label": "需觀察", "pickup_score": 0.765, "return_score": 1, "bus_score": 0.54, "coverage_score": 1, "bike_station_count": 17, "available_rent_bikes": 106, "available_return_bikes": 370, "bike_offline_rate": 0.0, "bus_stop_count": 202, "bus_eta_sample_count": 151, "median_eta_min": 13.9, "bus_issue_rate": 0.213}, "geometry": {"type": "Point", "coordinates": [121.53315, 25.05924]}}, {"type": "Feature", "properties": {"data_time": "2026-05-02T17:06:39+08:00", "method_version": "last_mile_service_v1", "station_id": "TRTC-O10", "station_name": "中山國小", "city": "臺北", "town": "中山區", "line_id": "O", "line_name": "中和新蘆線", "line_color": "#f8b61c", "network_degree": 1, "station_type": "通勤型站", "service_score": 71, "risk_score": 29, "service_status": "watch", "status_label": "需觀察", "pickup_score": 0.478, "return_score": 1, "bus_score": 0.539, "coverage_score": 1, "bike_station_count": 23, "available_rent_bikes": 63, "available_return_bikes": 526, "bike_offline_rate": 0.0, "bus_stop_count": 286, "bus_eta_sample_count": 188, "median_eta_min": 12.9, "bus_issue_rate": 0.318}, "geometry": {"type": "Point", "coordinates": [121.526609, 25.062665]}}, {"type": "Feature", "properties": {"data_time": "2026-05-02T17:06:39+08:00", "method_version": "last_mile_service_v1", "station_id": "TRTC-O11", "station_name": "民權西路", "city": "臺北", "town": "中山區", "line_id": "O", "line_name": "中和新蘆線", "line_color": "#f8b61c", "network_degree": 2, "station_type": "轉乘型站", "service_score": 74, "risk_score": 26, "service_status": "watch", "status_label": "需觀察", "pickup_score": 0.579, "return_score": 1, "bus_score": 0.538, "coverage_score": 1, "bike_station_count": 19, "available_rent_bikes": 78, "available_return_bikes": 427, "bike_offline_rate": 0.0, "bus_stop_count": 242, "bus_eta_sample_count": 162, "median_eta_min": 13.0, "bus_issue_rate": 0.314}, "geometry": {"type": "Point", "coordinates": [121.519585, 25.06235]}}, {"type": "Feature", "properties": {"data_time": "2026-05-02T17:06:39+08:00", "method_version": "last_mile_service_v1", "station_id": "TRTC-O12", "station_name": "大橋頭", "city": "臺北", "town": "大同區", "line_id": "O", "line_name": "中和新蘆線", "line_color": "#f8b61c", "network_degree": 1, "station_type": "通勤型站", "service_score": 71, "risk_score": 29, "service_status": "watch", "status_label": "需觀察", "pickup_score": 0.632, "return_score": 1, "bus_score": 0.396, "coverage_score": 1, "bike_station_count": 19, "available_rent_bikes": 82, "available_return_bikes": 347, "bike_offline_rate": 0.0, "bus_stop_count": 201, "bus_eta_sample_count": 155, "median_eta_min": 19.0, "bus_issue_rate": 0.204}, "geometry": {"type": "Point", "coordinates": [121.513003, 25.06322]}}, {"type": "Feature", "properties": {"data_time": "2026-05-02T17:06:39+08:00", "method_version": "last_mile_service_v1", "station_id": "TRTC-O13", "station_name": "台北橋", "city": "新北", "town": "三重區", "line_id": "O", "line_name": "中和新蘆線", "line_color": "#f8b61c", "network_degree": 1, "station_type": "通勤型站", "service_score": 86, "risk_score": 14, "service_status": "good", "status_label": "穩定", "pickup_score": 1, "return_score": 1, "bus_score": 0.558, "coverage_score": 0.925, "bike_station_count": 5, "available_rent_bikes": 46, "available_return_bikes": 93, "bike_offline_rate": 0.0, "bus_stop_count": 239, "bus_eta_sample_count": 153, "median_eta_min": 12.2, "bus_issue_rate": 0.322}, "geometry": {"type": "Point", "coordinates": [121.500575, 25.063075]}}, {"type": "Feature", "properties": {"data_time": "2026-05-02T17:06:39+08:00", "method_version": "last_mile_service_v1", "station_id": "TRTC-O14", "station_name": "菜寮", "city": "新北", "town": "三重區", "line_id": "O", "line_name": "中和新蘆線", "line_color": "#f8b61c", "network_degree": 1, "station_type": "通勤型站", "service_score": 86, "risk_score": 14, "service_status": "good", "status_label": "穩定", "pickup_score": 1, "return_score": 1, "bus_score": 0.526, "coverage_score": 1, "bike_station_count": 7, "available_rent_bikes": 70, "available_return_bikes": 257, "bike_offline_rate": 0.0, "bus_stop_count": 258, "bus_eta_sample_count": 178, "median_eta_min": 13.5, "bus_issue_rate": 0.306}, "geometry": {"type": "Point", "coordinates": [121.491451, 25.059808]}}, {"type": "Feature", "properties": {"data_time": "2026-05-02T17:06:39+08:00", "method_version": "last_mile_service_v1", "station_id": "TRTC-O15", "station_name": "三重", "city": "新北", "town": "三重區", "line_id": "O", "line_name": "中和新蘆線", "line_color": "#f8b61c", "network_degree": 1, "station_type": "通勤型站", "service_score": 74, "risk_score": 26, "service_status": "watch", "status_label": "需觀察", "pickup_score": 0.571, "return_score": 1, "bus_score": 0.56, "coverage_score": 1, "bike_station_count": 7, "available_rent_bikes": 36, "available_return_bikes": 185, "bike_offline_rate": 0.0, "bus_stop_count": 92, "bus_eta_sample_count": 62, "median_eta_min": 12.1, "bus_issue_rate": 0.326}, "geometry": {"type": "Point", "coordinates": [121.48422, 25.05571]}}, {"type": "Feature", "properties": {"data_time": "2026-05-02T17:06:39+08:00", "method_version": "last_mile_service_v1", "station_id": "TRTC-O16", "station_name": "先嗇宮", "city": "新北", "town": "三重區", "line_id": "O", "line_name": "中和新蘆線", "line_color": "#f8b61c", "network_degree": 1, "station_type": "通勤型站", "service_score": 77, "risk_score": 23, "service_status": "watch", "status_label": "需觀察", "pickup_score": 0.8, "return_score": 1, "bus_score": 0.462, "coverage_score": 0.925, "bike_station_count": 5, "available_rent_bikes": 42, "available_return_bikes": 154, "bike_offline_rate": 0.0, "bus_stop_count": 142, "bus_eta_sample_count": 81, "median_eta_min": 14.5, "bus_issue_rate": 0.43}, "geometry": {"type": "Point", "coordinates": [121.47165, 25.04632]}}, {"type": "Feature", "properties": {"data_time": "2026-05-02T17:06:39+08:00", "method_version": "last_mile_service_v1", "station_id": "TRTC-O17", "station_name": "頭前庄", "city": "新北", "town": "新莊區", "line_id": "O", "line_name": "中和新蘆線", "line_color": "#f8b61c", "network_degree": 1, "station_type": "通勤型站", "service_score": 76, "risk_score": 24, "service_status": "watch", "status_label": "需觀察", "pickup_score": 0.875, "return_score": 0.875, "bus_score": 0.422, "coverage_score": 1, "bike_station_count": 8, "available_rent_bikes": 83, "available_return_bikes": 220, "bike_offline_rate": 0.0, "bus_stop_count": 158, "bus_eta_sample_count": 89, "median_eta_min": 16.0, "bus_issue_rate": 0.418}, "geometry": {"type": "Point", "coordinates": [121.460479, 25.039862]}}, {"type": "Feature", "properties": {"data_time": "2026-05-02T17:06:39+08:00", "method_version": "last_mile_service_v1", "station_id": "TRTC-O18", "station_name": "新莊", "city": "新北", "town": "新莊區", "line_id": "O", "line_name": "中和新蘆線", "line_color": "#f8b61c", "network_degree": 1, "station_type": "通勤型站", "service_score": 79, "risk_score": 21, "service_status": "watch", "status_label": "需觀察", "pickup_score": 1, "return_score": 1, "bus_score": 0.351, "coverage_score": 0.925, "bike_station_count": 5, "available_rent_bikes": 146, "available_return_bikes": 110, "bike_offline_rate": 0.0, "bus_stop_count": 155, "bus_eta_sample_count": 85, "median_eta_min": 18.2, "bus_issue_rate": 0.445}, "geometry": {"type": "Point", "coordinates": [121.45218, 25.03608]}}, {"type": "Feature", "properties": {"data_time": "2026-05-02T17:06:39+08:00", "method_version": "last_mile_service_v1", "station_id": "TRTC-O19", "station_name": "輔大", "city": "新北", "town": "新莊區", "line_id": "O", "line_name": "中和新蘆線", "line_color": "#f8b61c", "network_degree": 1, "station_type": "一般接駁型站", "service_score": 82, "risk_score": 18, "service_status": "good", "status_label": "穩定", "pickup_score": 1, "return_score": 1, "bus_score": 0.565, "coverage_score": 0.7, "bike_station_count": 2, "available_rent_bikes": 54, "available_return_bikes": 29, "bike_offline_rate": 0.0, "bus_stop_count": 108, "bus_eta_sample_count": 57, "median_eta_min": 10.6, "bus_issue_rate": 0.463}, "geometry": {"type": "Point", "coordinates": [121.435735, 25.03279]}}, {"type": "Feature", "properties": {"data_time": "2026-05-02T17:06:39+08:00", "method_version": "last_mile_service_v1", "station_id": "TRTC-O20", "station_name": "丹鳳", "city": "新北", "town": "新莊區", "line_id": "O", "line_name": "中和新蘆線", "line_color": "#f8b61c", "network_degree": 1, "station_type": "通勤型站", "service_score": 79, "risk_score": 21, "service_status": "watch", "status_label": "需觀察", "pickup_score": 0.8, "return_score": 1, "bus_score": 0.524, "coverage_score": 0.925, "bike_station_count": 5, "available_rent_bikes": 39, "available_return_bikes": 104, "bike_offline_rate": 0.0, "bus_stop_count": 190, "bus_eta_sample_count": 108, "median_eta_min": 12.5, "bus_issue_rate": 0.416}, "geometry": {"type": "Point", "coordinates": [121.422422, 25.029073]}}, {"type": "Feature", "properties": {"data_time": "2026-05-02T17:06:39+08:00", "method_version": "last_mile_service_v1", "station_id": "TRTC-O21", "station_name": "迴龍", "city": "新北", "town": "新莊區", "line_id": "O", "line_name": "中和新蘆線", "line_color": "#f8b61c", "network_degree": 1, "station_type": "一般接駁型站", "service_score": 78, "risk_score": 22, "service_status": "watch", "status_label": "需觀察", "pickup_score": 1, "return_score": 1, "bus_score": 0.366, "coverage_score": 0.775, "bike_station_count": 3, "available_rent_bikes": 28, "available_return_bikes": 51, "bike_offline_rate": 0.0, "bus_stop_count": 90, "bus_eta_sample_count": 56, "median_eta_min": 17.7, "bus_issue_rate": 0.444}, "geometry": {"type": "Point", "coordinates": [121.411757, 25.022107]}}, {"type": "Feature", "properties": {"data_time": "2026-05-02T17:06:39+08:00", "method_version": "last_mile_service_v1", "station_id": "TRTC-O50", "station_name": "三重國小", "city": "新北", "town": "三重區", "line_id": "O", "line_name": "中和新蘆線", "line_color": "#f8b61c", "network_degree": 1, "station_type": "通勤型站", "service_score": 81, "risk_score": 19, "service_status": "good", "status_label": "穩定", "pickup_score": 0.714, "return_score": 1, "bus_score": 0.663, "coverage_score": 1, "bike_station_count": 7, "available_rent_bikes": 105, "available_return_bikes": 129, "bike_offline_rate": 0.0, "bus_stop_count": 201, "bus_eta_sample_count": 127, "median_eta_min": 8.4, "bus_issue_rate": 0.338}, "geometry": {"type": "Point", "coordinates": [121.49701, 25.070275]}}, {"type": "Feature", "properties": {"data_time": "2026-05-02T17:06:39+08:00", "method_version": "last_mile_service_v1", "station_id": "TRTC-O51", "station_name": "三和國中", "city": "新北", "town": "三重區", "line_id": "O", "line_name": "中和新蘆線", "line_color": "#f8b61c", "network_degree": 1, "station_type": "通勤型站", "service_score": 75, "risk_score": 25, "service_status": "watch", "status_label": "需觀察", "pickup_score": 0.625, "return_score": 0.938, "bus_score": 0.606, "coverage_score": 1, "bike_station_count": 16, "available_rent_bikes": 155, "available_return_bikes": 283, "bike_offline_rate": 0.0, "bus_stop_count": 225, "bus_eta_sample_count": 138, "median_eta_min": 9.8, "bus_issue_rate": 0.4}, "geometry": {"type": "Point", "coordinates": [121.486455, 25.076794]}}, {"type": "Feature", "properties": {"data_time": "2026-05-02T17:06:39+08:00", "method_version": "last_mile_service_v1", "station_id": "TRTC-O52", "station_name": "徐匯中學", "city": "新北", "town": "蘆洲區", "line_id": "O", "line_name": "中和新蘆線", "line_color": "#f8b61c", "network_degree": 1, "station_type": "通勤型站", "service_score": 74, "risk_score": 26, "service_status": "watch", "status_label": "需觀察", "pickup_score": 0.556, "return_score": 1, "bus_score": 0.583, "coverage_score": 1, "bike_station_count": 9, "available_rent_bikes": 69, "available_return_bikes": 197, "bike_offline_rate": 0.0, "bus_stop_count": 266, "bus_eta_sample_count": 168, "median_eta_min": 10.7, "bus_issue_rate": 0.387}, "geometry": {"type": "Point", "coordinates": [121.479945, 25.080485]}}, {"type": "Feature", "properties": {"data_time": "2026-05-02T17:06:39+08:00", "method_version": "last_mile_service_v1", "station_id": "TRTC-O53", "station_name": "三民高中", "city": "新北", "town": "蘆洲區", "line_id": "O", "line_name": "中和新蘆線", "line_color": "#f8b61c", "network_degree": 1, "station_type": "通勤型站", "service_score": 62, "risk_score": 38, "service_status": "weak", "status_label": "偏弱", "pickup_score": 0.455, "return_score": 0.818, "bus_score": 0.414, "coverage_score": 1, "bike_station_count": 11, "available_rent_bikes": 45, "available_return_bikes": 227, "bike_offline_rate": 0.091, "bus_stop_count": 237, "bus_eta_sample_count": 131, "median_eta_min": 15.7, "bus_issue_rate": 0.477}, "geometry": {"type": "Point", "coordinates": [121.473365, 25.085425]}}, {"type": "Feature", "properties": {"data_time": "2026-05-02T17:06:39+08:00", "method_version": "last_mile_service_v1", "station_id": "TRTC-O54", "station_name": "蘆洲", "city": "新北", "town": "蘆洲區", "line_id": "O", "line_name": "中和新蘆線", "line_color": "#f8b61c", "network_degree": 1, "station_type": "通勤型站", "service_score": 62, "risk_score": 38, "service_status": "weak", "status_label": "偏弱", "pickup_score": 0.3, "return_score": 1, "bus_score": 0.422, "coverage_score": 1, "bike_station_count": 10, "available_rent_bikes": 56, "available_return_bikes": 277, "bike_offline_rate": 0.0, "bus_stop_count": 208, "bus_eta_sample_count": 128, "median_eta_min": 15.3, "bus_issue_rate": 0.49}, "geometry": {"type": "Point", "coordinates": [121.46471, 25.09152]}}]}