{"type": "FeatureCollection", "name": "metro_last_mile_r_stations", "features": [{"type": "Feature", "properties": {"data_time": "2026-05-02T17:06:39+08:00", "method_version": "last_mile_service_v1", "station_id": "TRTC-BL12", "station_name": "台北車站", "city": "臺北", "town": "中正區", "line_id": "R", "line_name": "淡水信義線", "line_color": "#e3002c", "network_degree": 2, "station_type": "轉乘型站", "service_score": 80, "risk_score": 20, "service_status": "good", "status_label": "穩定", "pickup_score": 0.923, "return_score": 0.923, "bus_score": 0.49, "coverage_score": 1, "bike_station_count": 13, "available_rent_bikes": 276, "available_return_bikes": 205, "bike_offline_rate": 0.0, "bus_stop_count": 308, "bus_eta_sample_count": 234, "median_eta_min": 15.3, "bus_issue_rate": 0.247}, "geometry": {"type": "Point", "coordinates": [121.517415, 25.04631]}}, {"type": "Feature", "properties": {"data_time": "2026-05-02T17:06:39+08:00", "method_version": "last_mile_service_v1", "station_id": "TRTC-BR09", "station_name": "大安", "city": "臺北", "town": "大安區", "line_id": "R", "line_name": "淡水信義線", "line_color": "#e3002c", "network_degree": 2, "station_type": "轉乘型站", "service_score": 90, "risk_score": 10, "service_status": "good", "status_label": "穩定", "pickup_score": 1, "return_score": 0.933, "bus_score": 0.736, "coverage_score": 1, "bike_station_count": 15, "available_rent_bikes": 195, "available_return_bikes": 257, "bike_offline_rate": 0.0, "bus_stop_count": 99, "bus_eta_sample_count": 81, "median_eta_min": 7.1, "bus_issue_rate": 0.212}, "geometry": {"type": "Point", "coordinates": [121.54237, 25.033311]}}, {"type": "Feature", "properties": {"data_time": "2026-05-02T17:06:39+08:00", "method_version": "last_mile_service_v1", "station_id": "TRTC-G10", "station_name": "中正紀念堂", "city": "臺北", "town": "中正區", "line_id": "R", "line_name": "淡水信義線", "line_color": "#e3002c", "network_degree": 2, "station_type": "轉乘型站", "service_score": 78, "risk_score": 22, "service_status": "watch", "status_label": "需觀察", "pickup_score": 0.769, "return_score": 0.923, "bus_score": 0.555, "coverage_score": 1, "bike_station_count": 13, "available_rent_bikes": 136, "available_return_bikes": 184, "bike_offline_rate": 0.0, "bus_stop_count": 138, "bus_eta_sample_count": 102, "median_eta_min": 12.9, "bus_issue_rate": 0.261}, "geometry": {"type": "Point", "coordinates": [121.518273, 25.032767]}}, {"type": "Feature", "properties": {"data_time": "2026-05-02T17:06:39+08:00", "method_version": "last_mile_service_v1", "station_id": "TRTC-G14", "station_name": "中山", "city": "臺北", "town": "中山區", "line_id": "R", "line_name": "淡水信義線", "line_color": "#e3002c", "network_degree": 2, "station_type": "轉乘型站", "service_score": 71, "risk_score": 29, "service_status": "watch", "status_label": "需觀察", "pickup_score": 0.917, "return_score": 0.583, "bus_score": 0.45, "coverage_score": 1, "bike_station_count": 12, "available_rent_bikes": 234, "available_return_bikes": 83, "bike_offline_rate": 0.083, "bus_stop_count": 159, "bus_eta_sample_count": 115, "median_eta_min": 16.3, "bus_issue_rate": 0.289}, "geometry": {"type": "Point", "coordinates": [121.520364, 25.052621]}}, {"type": "Feature", "properties": {"data_time": "2026-05-02T17:06:39+08:00", "method_version": "last_mile_service_v1", "station_id": "TRTC-O06", "station_name": "東門", "city": "臺北", "town": "大安區", "line_id": "R", "line_name": "淡水信義線", "line_color": "#e3002c", "network_degree": 2, "station_type": "轉乘型站", "service_score": 77, "risk_score": 23, "service_status": "watch", "status_label": "需觀察", "pickup_score": 0.769, "return_score": 0.846, "bus_score": 0.58, "coverage_score": 1, "bike_station_count": 13, "available_rent_bikes": 111, "available_return_bikes": 157, "bike_offline_rate": 0.077, "bus_stop_count": 147, "bus_eta_sample_count": 101, "median_eta_min": 11.0, "bus_issue_rate": 0.367}, "geometry": {"type": "Point", "coordinates": [121.528766, 25.033894]}}, {"type": "Feature", "properties": {"data_time": "2026-05-02T17:06:39+08:00", "method_version": "last_mile_service_v1", "station_id": "TRTC-O11", "station_name": "民權西路", "city": "臺北", "town": "中山區", "line_id": "R", "line_name": "淡水信義線", "line_color": "#e3002c", "network_degree": 2, "station_type": "轉乘型站", "service_score": 74, "risk_score": 26, "service_status": "watch", "status_label": "需觀察", "pickup_score": 0.579, "return_score": 1, "bus_score": 0.538, "coverage_score": 1, "bike_station_count": 19, "available_rent_bikes": 78, "available_return_bikes": 427, "bike_offline_rate": 0.0, "bus_stop_count": 242, "bus_eta_sample_count": 162, "median_eta_min": 13.0, "bus_issue_rate": 0.314}, "geometry": {"type": "Point", "coordinates": [121.519585, 25.06235]}}, {"type": "Feature", "properties": {"data_time": "2026-05-02T17:06:39+08:00", "method_version": "last_mile_service_v1", "station_id": "TRTC-R02", "station_name": "象山", "city": "臺北", "town": "信義區", "line_id": "R", "line_name": "淡水信義線", "line_color": "#e3002c", "network_degree": 1, "station_type": "通勤型站", "service_score": 73, "risk_score": 27, "service_status": "watch", "status_label": "需觀察", "pickup_score": 0.765, "return_score": 0.882, "bus_score": 0.439, "coverage_score": 1, "bike_station_count": 17, "available_rent_bikes": 362, "available_return_bikes": 386, "bike_offline_rate": 0.0, "bus_stop_count": 130, "bus_eta_sample_count": 100, "median_eta_min": 16.5, "bus_issue_rate": 0.308}, "geometry": {"type": "Point", "coordinates": [121.57008, 25.032816]}}, {"type": "Feature", "properties": {"data_time": "2026-05-02T17:06:39+08:00", "method_version": "last_mile_service_v1", "station_id": "TRTC-R03", "station_name": "台北101/世貿", "city": "臺北", "town": "信義區", "line_id": "R", "line_name": "淡水信義線", "line_color": "#e3002c", "network_degree": 1, "station_type": "通勤型站", "service_score": 82, "risk_score": 18, "service_status": "good", "status_label": "穩定", "pickup_score": 0.833, "return_score": 0.889, "bus_score": 0.648, "coverage_score": 1, "bike_station_count": 18, "available_rent_bikes": 327, "available_return_bikes": 317, "bike_offline_rate": 0.0, "bus_stop_count": 186, "bus_eta_sample_count": 136, "median_eta_min": 9.4, "bus_issue_rate": 0.29}, "geometry": {"type": "Point", "coordinates": [121.562755, 25.033028]}}, {"type": "Feature", "properties": {"data_time": "2026-05-02T17:06:39+08:00", "method_version": "last_mile_service_v1", "station_id": "TRTC-R04", "station_name": "信義安和", "city": "臺北", "town": "大安區", "line_id": "R", "line_name": "淡水信義線", "line_color": "#e3002c", "network_degree": 1, "station_type": "通勤型站", "service_score": 81, "risk_score": 19, "service_status": "good", "status_label": "穩定", "pickup_score": 0.824, "return_score": 0.941, "bus_score": 0.606, "coverage_score": 1, "bike_station_count": 17, "available_rent_bikes": 136, "available_return_bikes": 317, "bike_offline_rate": 0.059, "bus_stop_count": 182, "bus_eta_sample_count": 117, "median_eta_min": 10.1, "bus_issue_rate": 0.368}, "geometry": {"type": "Point", "coordinates": [121.55265, 25.03331]}}, {"type": "Feature", "properties": {"data_time": "2026-05-02T17:06:39+08:00", "method_version": "last_mile_service_v1", "station_id": "TRTC-R06", "station_name": "大安森林公園", "city": "臺北", "town": "大安區", "line_id": "R", "line_name": "淡水信義線", "line_color": "#e3002c", "network_degree": 1, "station_type": "通勤型站", "service_score": 84, "risk_score": 16, "service_status": "good", "status_label": "穩定", "pickup_score": 1, "return_score": 1, "bus_score": 0.478, "coverage_score": 1, "bike_station_count": 8, "available_rent_bikes": 163, "available_return_bikes": 141, "bike_offline_rate": 0.0, "bus_stop_count": 135, "bus_eta_sample_count": 87, "median_eta_min": 14.6, "bus_issue_rate": 0.363}, "geometry": {"type": "Point", "coordinates": [121.536151, 25.033225]}}, {"type": "Feature", "properties": {"data_time": "2026-05-02T17:06:39+08:00", "method_version": "last_mile_service_v1", "station_id": "TRTC-R09", "station_name": "台大醫院", "city": "臺北", "town": "中正區", "line_id": "R", "line_name": "淡水信義線", "line_color": "#e3002c", "network_degree": 1, "station_type": "通勤型站", "service_score": 79, "risk_score": 21, "service_status": "watch", "status_label": "需觀察", "pickup_score": 1, "return_score": 0.7, "bus_score": 0.538, "coverage_score": 1, "bike_station_count": 10, "available_rent_bikes": 208, "available_return_bikes": 145, "bike_offline_rate": 0.0, "bus_stop_count": 228, "bus_eta_sample_count": 183, "median_eta_min": 14.0, "bus_issue_rate": 0.211}, "geometry": {"type": "Point", "coordinates": [121.51602, 25.041399]}}, {"type": "Feature", "properties": {"data_time": "2026-05-02T17:06:39+08:00", "method_version": "last_mile_service_v1", "station_id": "TRTC-R12", "station_name": "雙連", "city": "臺北", "town": "中山區", "line_id": "R", "line_name": "淡水信義線", "line_color": "#e3002c", "network_degree": 1, "station_type": "通勤型站", "service_score": 73, "risk_score": 27, "service_status": "watch", "status_label": "需觀察", "pickup_score": 0.706, "return_score": 0.941, "bus_score": 0.445, "coverage_score": 1, "bike_station_count": 17, "available_rent_bikes": 152, "available_return_bikes": 307, "bike_offline_rate": 0.059, "bus_stop_count": 136, "bus_eta_sample_count": 89, "median_eta_min": 15.9, "bus_issue_rate": 0.346}, "geometry": {"type": "Point", "coordinates": [121.520685, 25.057575]}}, {"type": "Feature", "properties": {"data_time": "2026-05-02T17:06:39+08:00", "method_version": "last_mile_service_v1", "station_id": "TRTC-R14", "station_name": "圓山", "city": "臺北", "town": "中山區", "line_id": "R", "line_name": "淡水信義線", "line_color": "#e3002c", "network_degree": 1, "station_type": "通勤型站", "service_score": 74, "risk_score": 26, "service_status": "watch", "status_label": "需觀察", "pickup_score": 0.6, "return_score": 1, "bus_score": 0.548, "coverage_score": 1, "bike_station_count": 20, "available_rent_bikes": 143, "available_return_bikes": 483, "bike_offline_rate": 0.0, "bus_stop_count": 220, "bus_eta_sample_count": 127, "median_eta_min": 11.5, "bus_issue_rate": 0.432}, "geometry": {"type": "Point", "coordinates": [121.520074, 25.071409]}}, {"type": "Feature", "properties": {"data_time": "2026-05-02T17:06:39+08:00", "method_version": "last_mile_service_v1", "station_id": "TRTC-R15", "station_name": "劍潭", "city": "臺北", "town": "士林區", "line_id": "R", "line_name": "淡水信義線", "line_color": "#e3002c", "network_degree": 1, "station_type": "通勤型站", "service_score": 76, "risk_score": 24, "service_status": "watch", "status_label": "需觀察", "pickup_score": 0.875, "return_score": 0.938, "bus_score": 0.367, "coverage_score": 1, "bike_station_count": 16, "available_rent_bikes": 329, "available_return_bikes": 196, "bike_offline_rate": 0.0, "bus_stop_count": 266, "bus_eta_sample_count": 153, "median_eta_min": 16.9, "bus_issue_rate": 0.523}, "geometry": {"type": "Point", "coordinates": [121.524955, 25.084201]}}, {"type": "Feature", "properties": {"data_time": "2026-05-02T17:06:39+08:00", "method_version": "last_mile_service_v1", "station_id": "TRTC-R16", "station_name": "士林", "city": "臺北", "town": "士林區", "line_id": "R", "line_name": "淡水信義線", "line_color": "#e3002c", "network_degree": 1, "station_type": "通勤型站", "service_score": 73, "risk_score": 27, "service_status": "watch", "status_label": "需觀察", "pickup_score": 0.889, "return_score": 0.778, "bus_score": 0.386, "coverage_score": 1, "bike_station_count": 9, "available_rent_bikes": 138, "available_return_bikes": 108, "bike_offline_rate": 0.0, "bus_stop_count": 450, "bus_eta_sample_count": 255, "median_eta_min": 16.3, "bus_issue_rate": 0.516}, "geometry": {"type": "Point", "coordinates": [121.52623, 25.093492]}}, {"type": "Feature", "properties": {"data_time": "2026-05-02T17:06:39+08:00", "method_version": "last_mile_service_v1", "station_id": "TRTC-R17", "station_name": "芝山", "city": "臺北", "town": "士林區", "line_id": "R", "line_name": "淡水信義線", "line_color": "#e3002c", "network_degree": 1, "station_type": "通勤型站", "service_score": 65, "risk_score": 35, "service_status": "watch", "status_label": "需觀察", "pickup_score": 0.4, "return_score": 1, "bus_score": 0.433, "coverage_score": 1, "bike_station_count": 10, "available_rent_bikes": 31, "available_return_bikes": 296, "bike_offline_rate": 0.0, "bus_stop_count": 168, "bus_eta_sample_count": 97, "median_eta_min": 15.4, "bus_issue_rate": 0.44}, "geometry": {"type": "Point", "coordinates": [121.522546, 25.102718]}}, {"type": "Feature", "properties": {"data_time": "2026-05-02T17:06:39+08:00", "method_version": "last_mile_service_v1", "station_id": "TRTC-R18", "station_name": "明德", "city": "臺北", "town": "北投區", "line_id": "R", "line_name": "淡水信義線", "line_color": "#e3002c", "network_degree": 1, "station_type": "通勤型站", "service_score": 70, "risk_score": 30, "service_status": "watch", "status_label": "需觀察", "pickup_score": 0.5, "return_score": 1, "bus_score": 0.489, "coverage_score": 1, "bike_station_count": 8, "available_rent_bikes": 34, "available_return_bikes": 191, "bike_offline_rate": 0.0, "bus_stop_count": 79, "bus_eta_sample_count": 38, "median_eta_min": 12.7, "bus_issue_rate": 0.519}, "geometry": {"type": "Point", "coordinates": [121.518785, 25.109815]}}, {"type": "Feature", "properties": {"data_time": "2026-05-02T17:06:39+08:00", "method_version": "last_mile_service_v1", "station_id": "TRTC-R19", "station_name": "石牌", "city": "臺北", "town": "北投區", "line_id": "R", "line_name": "淡水信義線", "line_color": "#e3002c", "network_degree": 1, "station_type": "通勤型站", "service_score": 79, "risk_score": 21, "service_status": "watch", "status_label": "需觀察", "pickup_score": 0.75, "return_score": 1, "bus_score": 0.552, "coverage_score": 1, "bike_station_count": 8, "available_rent_bikes": 106, "available_return_bikes": 134, "bike_offline_rate": 0.0, "bus_stop_count": 171, "bus_eta_sample_count": 116, "median_eta_min": 11.7, "bus_issue_rate": 0.398}, "geometry": {"type": "Point", "coordinates": [121.515572, 25.114455]}}, {"type": "Feature", "properties": {"data_time": "2026-05-02T17:06:39+08:00", "method_version": "last_mile_service_v1", "station_id": "TRTC-R20", "station_name": "唭哩岸", "city": "臺北", "town": "北投區", "line_id": "R", "line_name": "淡水信義線", "line_color": "#e3002c", "network_degree": 1, "station_type": "通勤型站", "service_score": 69, "risk_score": 31, "service_status": "watch", "status_label": "需觀察", "pickup_score": 0.8, "return_score": 1, "bus_score": 0.169, "coverage_score": 1, "bike_station_count": 10, "available_rent_bikes": 99, "available_return_bikes": 170, "bike_offline_rate": 0.0, "bus_stop_count": 111, "bus_eta_sample_count": 74, "median_eta_min": 24.2, "bus_issue_rate": 0.477}, "geometry": {"type": "Point", "coordinates": [121.506234, 25.120852]}}, {"type": "Feature", "properties": {"data_time": "2026-05-02T17:06:39+08:00", "method_version": "last_mile_service_v1", "station_id": "TRTC-R21", "station_name": "奇岩", "city": "臺北", "town": "北投區", "line_id": "R", "line_name": "淡水信義線", "line_color": "#e3002c", "network_degree": 1, "station_type": "通勤型站", "service_score": 77, "risk_score": 23, "service_status": "watch", "status_label": "需觀察", "pickup_score": 1, "return_score": 1, "bus_score": 0.246, "coverage_score": 1, "bike_station_count": 11, "available_rent_bikes": 121, "available_return_bikes": 137, "bike_offline_rate": 0.0, "bus_stop_count": 88, "bus_eta_sample_count": 48, "median_eta_min": 21.0, "bus_issue_rate": 0.534}, "geometry": {"type": "Point", "coordinates": [121.50114, 25.12547]}}, {"type": "Feature", "properties": {"data_time": "2026-05-02T17:06:39+08:00", "method_version": "last_mile_service_v1", "station_id": "TRTC-R22", "station_name": "北投", "city": "臺北", "town": "北投區", "line_id": "R", "line_name": "淡水信義線", "line_color": "#e3002c", "network_degree": 1, "station_type": "通勤型站", "service_score": 74, "risk_score": 26, "service_status": "watch", "status_label": "需觀察", "pickup_score": 1, "return_score": 0.818, "bus_score": 0.291, "coverage_score": 1, "bike_station_count": 11, "available_rent_bikes": 175, "available_return_bikes": 146, "bike_offline_rate": 0.0, "bus_stop_count": 249, "bus_eta_sample_count": 155, "median_eta_min": 19.4, "bus_issue_rate": 0.538}, "geometry": {"type": "Point", "coordinates": [121.498648, 25.131819]}}, {"type": "Feature", "properties": {"data_time": "2026-05-02T17:06:39+08:00", "method_version": "last_mile_service_v1", "station_id": "TRTC-R23", "station_name": "復興崗", "city": "臺北", "town": "北投區", "line_id": "R", "line_name": "淡水信義線", "line_color": "#e3002c", "network_degree": 1, "station_type": "通勤型站", "service_score": 73, "risk_score": 27, "service_status": "watch", "status_label": "需觀察", "pickup_score": 1, "return_score": 1, "bus_score": 0.148, "coverage_score": 0.925, "bike_station_count": 5, "available_rent_bikes": 42, "available_return_bikes": 68, "bike_offline_rate": 0.0, "bus_stop_count": 72, "bus_eta_sample_count": 47, "median_eta_min": 27.0, "bus_issue_rate": 0.472}, "geometry": {"type": "Point", "coordinates": [121.485457, 25.137474]}}, {"type": "Feature", "properties": {"data_time": "2026-05-02T17:06:39+08:00", "method_version": "last_mile_service_v1", "station_id": "TRTC-R24", "station_name": "忠義", "city": "臺北", "town": "北投區", "line_id": "R", "line_name": "淡水信義線", "line_color": "#e3002c", "network_degree": 1, "station_type": "通勤型站", "service_score": 72, "risk_score": 28, "service_status": "watch", "status_label": "需觀察", "pickup_score": 1, "return_score": 1, "bus_score": 0.148, "coverage_score": 0.85, "bike_station_count": 4, "available_rent_bikes": 50, "available_return_bikes": 64, "bike_offline_rate": 0.0, "bus_stop_count": 83, "bus_eta_sample_count": 50, "median_eta_min": 26.7, "bus_issue_rate": 0.47}, "geometry": {"type": "Point", "coordinates": [121.473293, 25.131041]}}, {"type": "Feature", "properties": {"data_time": "2026-05-02T17:06:39+08:00", "method_version": "last_mile_service_v1", "station_id": "TRTC-R25", "station_name": "關渡", "city": "臺北", "town": "北投區", "line_id": "R", "line_name": "淡水信義線", "line_color": "#e3002c", "network_degree": 1, "station_type": "通勤型站", "service_score": 73, "risk_score": 27, "service_status": "watch", "status_label": "需觀察", "pickup_score": 0.875, "return_score": 1, "bus_score": 0.235, "coverage_score": 1, "bike_station_count": 8, "available_rent_bikes": 87, "available_return_bikes": 224, "bike_offline_rate": 0.0, "bus_stop_count": 159, "bus_eta_sample_count": 111, "median_eta_min": 22.1, "bus_issue_rate": 0.459}, "geometry": {"type": "Point", "coordinates": [121.4671, 25.12563]}}, {"type": "Feature", "properties": {"data_time": "2026-05-02T17:06:39+08:00", "method_version": "last_mile_service_v1", "station_id": "TRTC-R26", "station_name": "竹圍", "city": "新北", "town": "淡水區", "line_id": "R", "line_name": "淡水信義線", "line_color": "#e3002c", "network_degree": 1, "station_type": "一般接駁型站", "service_score": 65, "risk_score": 35, "service_status": "watch", "status_label": "需觀察", "pickup_score": 0.667, "return_score": 1, "bus_score": 0.275, "coverage_score": 0.775, "bike_station_count": 3, "available_rent_bikes": 29, "available_return_bikes": 63, "bike_offline_rate": 0.0, "bus_stop_count": 130, "bus_eta_sample_count": 79, "median_eta_min": 20.6, "bus_issue_rate": 0.469}, "geometry": {"type": "Point", "coordinates": [121.45955, 25.1369]}}, {"type": "Feature", "properties": {"data_time": "2026-05-02T17:06:39+08:00", "method_version": "last_mile_service_v1", "station_id": "TRTC-R27", "station_name": "紅樹林", "city": "新北", "town": "淡水區", "line_id": "R", "line_name": "淡水信義線", "line_color": "#e3002c", "network_degree": 1, "station_type": "一般接駁型站", "service_score": 79, "risk_score": 21, "service_status": "watch", "status_label": "需觀察", "pickup_score": 1, "return_score": 1, "bus_score": 0.465, "coverage_score": 0.7, "bike_station_count": 2, "available_rent_bikes": 32, "available_return_bikes": 60, "bike_offline_rate": 0.0, "bus_stop_count": 122, "bus_eta_sample_count": 65, "median_eta_min": 13.7, "bus_issue_rate": 0.5}, "geometry": {"type": "Point", "coordinates": [121.4588, 25.15399]}}, {"type": "Feature", "properties": {"data_time": "2026-05-02T17:06:39+08:00", "method_version": "last_mile_service_v1", "station_id": "TRTC-R28", "station_name": "淡水", "city": "新北", "town": "淡水區", "line_id": "R", "line_name": "淡水信義線", "line_color": "#e3002c", "network_degree": 1, "station_type": "通勤型站", "service_score": 67, "risk_score": 33, "service_status": "watch", "status_label": "需觀察", "pickup_score": 1, "return_score": 0.75, "bus_score": 0.192, "coverage_score": 0.85, "bike_station_count": 4, "available_rent_bikes": 163, "available_return_bikes": 11, "bike_offline_rate": 0.0, "bus_stop_count": 332, "bus_eta_sample_count": 173, "median_eta_min": 22.1, "bus_issue_rate": 0.614}, "geometry": {"type": "Point", "coordinates": [121.445805, 25.167745]}}, {"type": "Feature", "properties": {"data_time": "2026-05-02T17:06:39+08:00", "method_version": "last_mile_service_v1", "station_id": "TRTC-R22A", "station_name": "新北投", "city": "臺北", "town": "北投區", "line_id": "R", "line_name": "淡水信義線", "line_color": "#e3002c", "network_degree": 1, "station_type": "通勤型站", "service_score": 75, "risk_score": 25, "service_status": "watch", "status_label": "需觀察", "pickup_score": 0.786, "return_score": 0.929, "bus_score": 0.426, "coverage_score": 1, "bike_station_count": 14, "available_rent_bikes": 130, "available_return_bikes": 244, "bike_offline_rate": 0.0, "bus_stop_count": 277, "bus_eta_sample_count": 182, "median_eta_min": 14.9, "bus_issue_rate": 0.516}, "geometry": {"type": "Point", "coordinates": [121.502595, 25.136931]}}]}