{"type": "FeatureCollection", "name": "metro_last_mile_g_stations", "features": [{"type": "Feature", "properties": {"data_time": "2026-05-02T17:06:39+08:00", "method_version": "last_mile_service_v1", "station_id": "TRTC-BL11", "station_name": "西門", "city": "臺北", "town": "中正區", "line_id": "G", "line_name": "松山新店線", "line_color": "#008659", "network_degree": 2, "station_type": "轉乘型站", "service_score": 84, "risk_score": 16, "service_status": "good", "status_label": "穩定", "pickup_score": 1, "return_score": 0.923, "bus_score": 0.547, "coverage_score": 1, "bike_station_count": 13, "available_rent_bikes": 307, "available_return_bikes": 214, "bike_offline_rate": 0.0, "bus_stop_count": 422, "bus_eta_sample_count": 279, "median_eta_min": 12.4, "bus_issue_rate": 0.344}, "geometry": {"type": "Point", "coordinates": [121.508511, 25.042274]}}, {"type": "Feature", "properties": {"data_time": "2026-05-02T17:06:39+08:00", "method_version": "last_mile_service_v1", "station_id": "TRTC-BR11", "station_name": "南京復興", "city": "臺北", "town": "松山區", "line_id": "G", "line_name": "松山新店線", "line_color": "#008659", "network_degree": 2, "station_type": "轉乘型站", "service_score": 76, "risk_score": 24, "service_status": "watch", "status_label": "需觀察", "pickup_score": 0.611, "return_score": 1, "bus_score": 0.574, "coverage_score": 1, "bike_station_count": 18, "available_rent_bikes": 127, "available_return_bikes": 349, "bike_offline_rate": 0.056, "bus_stop_count": 173, "bus_eta_sample_count": 146, "median_eta_min": 13.1, "bus_issue_rate": 0.173}, "geometry": {"type": "Point", "coordinates": [121.544303, 25.052044]}}, {"type": "Feature", "properties": {"data_time": "2026-05-02T17:06:39+08:00", "method_version": "last_mile_service_v1", "station_id": "TRTC-G01", "station_name": "新店", "city": "新北", "town": "新店區", "line_id": "G", "line_name": "松山新店線", "line_color": "#008659", "network_degree": 1, "station_type": "通勤型站", "service_score": 79, "risk_score": 21, "service_status": "watch", "status_label": "需觀察", "pickup_score": 0.75, "return_score": 1, "bus_score": 0.623, "coverage_score": 0.85, "bike_station_count": 4, "available_rent_bikes": 68, "available_return_bikes": 59, "bike_offline_rate": 0.0, "bus_stop_count": 122, "bus_eta_sample_count": 79, "median_eta_min": 9.1, "bus_issue_rate": 0.41}, "geometry": {"type": "Point", "coordinates": [121.5377, 24.958181]}}, {"type": "Feature", "properties": {"data_time": "2026-05-02T17:06:39+08:00", "method_version": "last_mile_service_v1", "station_id": "TRTC-G02", "station_name": "新店區公所", "city": "新北", "town": "新店區", "line_id": "G", "line_name": "松山新店線", "line_color": "#008659", "network_degree": 1, "station_type": "通勤型站", "service_score": 81, "risk_score": 19, "service_status": "good", "status_label": "穩定", "pickup_score": 0.875, "return_score": 0.875, "bus_score": 0.589, "coverage_score": 1, "bike_station_count": 8, "available_rent_bikes": 109, "available_return_bikes": 163, "bike_offline_rate": 0.0, "bus_stop_count": 284, "bus_eta_sample_count": 194, "median_eta_min": 10.8, "bus_issue_rate": 0.356}, "geometry": {"type": "Point", "coordinates": [121.5413, 24.96744]}}, {"type": "Feature", "properties": {"data_time": "2026-05-02T17:06:39+08:00", "method_version": "last_mile_service_v1", "station_id": "TRTC-G03", "station_name": "七張", "city": "新北", "town": "新店區", "line_id": "G", "line_name": "松山新店線", "line_color": "#008659", "network_degree": 1, "station_type": "通勤型站", "service_score": 71, "risk_score": 29, "service_status": "watch", "status_label": "需觀察", "pickup_score": 0.455, "return_score": 1, "bus_score": 0.589, "coverage_score": 1, "bike_station_count": 11, "available_rent_bikes": 71, "available_return_bikes": 255, "bike_offline_rate": 0.0, "bus_stop_count": 305, "bus_eta_sample_count": 208, "median_eta_min": 10.9, "bus_issue_rate": 0.348}, "geometry": {"type": "Point", "coordinates": [121.543129, 24.975036]}}, {"type": "Feature", "properties": {"data_time": "2026-05-02T17:06:39+08:00", "method_version": "last_mile_service_v1", "station_id": "TRTC-G04", "station_name": "大坪林", "city": "新北", "town": "新店區", "line_id": "G", "line_name": "松山新店線", "line_color": "#008659", "network_degree": 1, "station_type": "通勤型站", "service_score": 78, "risk_score": 22, "service_status": "watch", "status_label": "需觀察", "pickup_score": 0.778, "return_score": 0.889, "bus_score": 0.573, "coverage_score": 1, "bike_station_count": 9, "available_rent_bikes": 83, "available_return_bikes": 218, "bike_offline_rate": 0.0, "bus_stop_count": 208, "bus_eta_sample_count": 155, "median_eta_min": 12.1, "bus_issue_rate": 0.279}, "geometry": {"type": "Point", "coordinates": [121.54134, 24.98272]}}, {"type": "Feature", "properties": {"data_time": "2026-05-02T17:06:39+08:00", "method_version": "last_mile_service_v1", "station_id": "TRTC-G05", "station_name": "景美", "city": "臺北", "town": "文山區", "line_id": "G", "line_name": "松山新店線", "line_color": "#008659", "network_degree": 1, "station_type": "通勤型站", "service_score": 76, "risk_score": 24, "service_status": "watch", "status_label": "需觀察", "pickup_score": 0.615, "return_score": 1, "bus_score": 0.576, "coverage_score": 1, "bike_station_count": 13, "available_rent_bikes": 104, "available_return_bikes": 194, "bike_offline_rate": 0.0, "bus_stop_count": 196, "bus_eta_sample_count": 146, "median_eta_min": 11.2, "bus_issue_rate": 0.362}, "geometry": {"type": "Point", "coordinates": [121.540697, 24.992824]}}, {"type": "Feature", "properties": {"data_time": "2026-05-02T17:06:39+08:00", "method_version": "last_mile_service_v1", "station_id": "TRTC-G06", "station_name": "萬隆", "city": "臺北", "town": "文山區", "line_id": "G", "line_name": "松山新店線", "line_color": "#008659", "network_degree": 1, "station_type": "通勤型站", "service_score": 84, "risk_score": 16, "service_status": "good", "status_label": "穩定", "pickup_score": 0.875, "return_score": 1, "bus_score": 0.595, "coverage_score": 1, "bike_station_count": 8, "available_rent_bikes": 80, "available_return_bikes": 179, "bike_offline_rate": 0.0, "bus_stop_count": 196, "bus_eta_sample_count": 133, "median_eta_min": 10.6, "bus_issue_rate": 0.357}, "geometry": {"type": "Point", "coordinates": [121.539008, 25.001978]}}, {"type": "Feature", "properties": {"data_time": "2026-05-02T17:06:39+08:00", "method_version": "last_mile_service_v1", "station_id": "TRTC-G07", "station_name": "公館", "city": "臺北", "town": "大安區", "line_id": "G", "line_name": "松山新店線", "line_color": "#008659", "network_degree": 1, "station_type": "通勤型站", "service_score": 80, "risk_score": 20, "service_status": "good", "status_label": "穩定", "pickup_score": 0.927, "return_score": 0.878, "bus_score": 0.524, "coverage_score": 1, "bike_station_count": 41, "available_rent_bikes": 617, "available_return_bikes": 694, "bike_offline_rate": 0.024, "bus_stop_count": 209, "bus_eta_sample_count": 133, "median_eta_min": 12.9, "bus_issue_rate": 0.373}, "geometry": {"type": "Point", "coordinates": [121.534358, 25.014781]}}, {"type": "Feature", "properties": {"data_time": "2026-05-02T17:06:39+08:00", "method_version": "last_mile_service_v1", "station_id": "TRTC-G08", "station_name": "台電大樓", "city": "臺北", "town": "大安區", "line_id": "G", "line_name": "松山新店線", "line_color": "#008659", "network_degree": 1, "station_type": "通勤型站", "service_score": 76, "risk_score": 24, "service_status": "watch", "status_label": "需觀察", "pickup_score": 0.8, "return_score": 0.8, "bus_score": 0.579, "coverage_score": 1, "bike_station_count": 20, "available_rent_bikes": 199, "available_return_bikes": 174, "bike_offline_rate": 0.0, "bus_stop_count": 180, "bus_eta_sample_count": 124, "median_eta_min": 11.6, "bus_issue_rate": 0.311}, "geometry": {"type": "Point", "coordinates": [121.528143, 25.020733]}}, {"type": "Feature", "properties": {"data_time": "2026-05-02T17:06:39+08:00", "method_version": "last_mile_service_v1", "station_id": "TRTC-G09", "station_name": "古亭", "city": "臺北", "town": "中正區", "line_id": "G", "line_name": "松山新店線", "line_color": "#008659", "network_degree": 2, "station_type": "轉乘型站", "service_score": 82, "risk_score": 18, "service_status": "good", "status_label": "穩定", "pickup_score": 0.941, "return_score": 0.941, "bus_score": 0.507, "coverage_score": 1, "bike_station_count": 17, "available_rent_bikes": 187, "available_return_bikes": 308, "bike_offline_rate": 0.059, "bus_stop_count": 226, "bus_eta_sample_count": 131, "median_eta_min": 13.2, "bus_issue_rate": 0.403}, "geometry": {"type": "Point", "coordinates": [121.522868, 25.026373]}}, {"type": "Feature", "properties": {"data_time": "2026-05-02T17:06:39+08:00", "method_version": "last_mile_service_v1", "station_id": "TRTC-G10", "station_name": "中正紀念堂", "city": "臺北", "town": "中正區", "line_id": "G", "line_name": "松山新店線", "line_color": "#008659", "network_degree": 2, "station_type": "轉乘型站", "service_score": 78, "risk_score": 22, "service_status": "watch", "status_label": "需觀察", "pickup_score": 0.769, "return_score": 0.923, "bus_score": 0.555, "coverage_score": 1, "bike_station_count": 13, "available_rent_bikes": 136, "available_return_bikes": 184, "bike_offline_rate": 0.0, "bus_stop_count": 138, "bus_eta_sample_count": 102, "median_eta_min": 12.9, "bus_issue_rate": 0.261}, "geometry": {"type": "Point", "coordinates": [121.518273, 25.032767]}}, {"type": "Feature", "properties": {"data_time": "2026-05-02T17:06:39+08:00", "method_version": "last_mile_service_v1", "station_id": "TRTC-G11", "station_name": "小南門", "city": "臺北", "town": "中正區", "line_id": "G", "line_name": "松山新店線", "line_color": "#008659", "network_degree": 1, "station_type": "通勤型站", "service_score": 83, "risk_score": 17, "service_status": "good", "status_label": "穩定", "pickup_score": 0.933, "return_score": 0.933, "bus_score": 0.568, "coverage_score": 1, "bike_station_count": 15, "available_rent_bikes": 207, "available_return_bikes": 343, "bike_offline_rate": 0.0, "bus_stop_count": 212, "bus_eta_sample_count": 149, "median_eta_min": 12.1, "bus_issue_rate": 0.297}, "geometry": {"type": "Point", "coordinates": [121.510798, 25.035619]}}, {"type": "Feature", "properties": {"data_time": "2026-05-02T17:06:39+08:00", "method_version": "last_mile_service_v1", "station_id": "TRTC-G13", "station_name": "北門", "city": "臺北", "town": "大同區", "line_id": "G", "line_name": "松山新店線", "line_color": "#008659", "network_degree": 1, "station_type": "通勤型站", "service_score": 71, "risk_score": 29, "service_status": "watch", "status_label": "需觀察", "pickup_score": 0.769, "return_score": 0.769, "bus_score": 0.454, "coverage_score": 1, "bike_station_count": 13, "available_rent_bikes": 197, "available_return_bikes": 259, "bike_offline_rate": 0.077, "bus_stop_count": 258, "bus_eta_sample_count": 162, "median_eta_min": 15.3, "bus_issue_rate": 0.376}, "geometry": {"type": "Point", "coordinates": [121.510184, 25.049554]}}, {"type": "Feature", "properties": {"data_time": "2026-05-02T17:06:39+08:00", "method_version": "last_mile_service_v1", "station_id": "TRTC-G14", "station_name": "中山", "city": "臺北", "town": "中山區", "line_id": "G", "line_name": "松山新店線", "line_color": "#008659", "network_degree": 2, "station_type": "轉乘型站", "service_score": 71, "risk_score": 29, "service_status": "watch", "status_label": "需觀察", "pickup_score": 0.917, "return_score": 0.583, "bus_score": 0.45, "coverage_score": 1, "bike_station_count": 12, "available_rent_bikes": 234, "available_return_bikes": 83, "bike_offline_rate": 0.083, "bus_stop_count": 159, "bus_eta_sample_count": 115, "median_eta_min": 16.3, "bus_issue_rate": 0.289}, "geometry": {"type": "Point", "coordinates": [121.520364, 25.052621]}}, {"type": "Feature", "properties": {"data_time": "2026-05-02T17:06:39+08:00", "method_version": "last_mile_service_v1", "station_id": "TRTC-G15", "station_name": "松江南京", "city": "臺北", "town": "中山區", "line_id": "G", "line_name": "松山新店線", "line_color": "#008659", "network_degree": 2, "station_type": "轉乘型站", "service_score": 79, "risk_score": 21, "service_status": "watch", "status_label": "需觀察", "pickup_score": 0.792, "return_score": 0.958, "bus_score": 0.547, "coverage_score": 1, "bike_station_count": 24, "available_rent_bikes": 250, "available_return_bikes": 382, "bike_offline_rate": 0.0, "bus_stop_count": 243, "bus_eta_sample_count": 182, "median_eta_min": 13.5, "bus_issue_rate": 0.23}, "geometry": {"type": "Point", "coordinates": [121.53285, 25.052693]}}, {"type": "Feature", "properties": {"data_time": "2026-05-02T17:06:39+08:00", "method_version": "last_mile_service_v1", "station_id": "TRTC-G17", "station_name": "台北小巨蛋", "city": "臺北", "town": "松山區", "line_id": "G", "line_name": "松山新店線", "line_color": "#008659", "network_degree": 1, "station_type": "通勤型站", "service_score": 82, "risk_score": 18, "service_status": "good", "status_label": "穩定", "pickup_score": 0.812, "return_score": 1, "bus_score": 0.589, "coverage_score": 1, "bike_station_count": 16, "available_rent_bikes": 180, "available_return_bikes": 319, "bike_offline_rate": 0.062, "bus_stop_count": 209, "bus_eta_sample_count": 163, "median_eta_min": 12.1, "bus_issue_rate": 0.225}, "geometry": {"type": "Point", "coordinates": [121.552549, 25.05152]}}, {"type": "Feature", "properties": {"data_time": "2026-05-02T17:06:39+08:00", "method_version": "last_mile_service_v1", "station_id": "TRTC-G18", "station_name": "南京三民", "city": "臺北", "town": "松山區", "line_id": "G", "line_name": "松山新店線", "line_color": "#008659", "network_degree": 1, "station_type": "通勤型站", "service_score": 69, "risk_score": 31, "service_status": "watch", "status_label": "需觀察", "pickup_score": 0.556, "return_score": 0.944, "bus_score": 0.474, "coverage_score": 1, "bike_station_count": 18, "available_rent_bikes": 85, "available_return_bikes": 425, "bike_offline_rate": 0.0, "bus_stop_count": 178, "bus_eta_sample_count": 122, "median_eta_min": 15.1, "bus_issue_rate": 0.326}, "geometry": {"type": "Point", "coordinates": [121.56471, 25.051588]}}, {"type": "Feature", "properties": {"data_time": "2026-05-02T17:06:39+08:00", "method_version": "last_mile_service_v1", "station_id": "TRTC-G19", "station_name": "松山", "city": "臺北", "town": "松山區", "line_id": "G", "line_name": "松山新店線", "line_color": "#008659", "network_degree": 1, "station_type": "通勤型站", "service_score": 75, "risk_score": 25, "service_status": "watch", "status_label": "需觀察", "pickup_score": 0.889, "return_score": 0.722, "bus_score": 0.512, "coverage_score": 1, "bike_station_count": 18, "available_rent_bikes": 229, "available_return_bikes": 248, "bike_offline_rate": 0.0, "bus_stop_count": 199, "bus_eta_sample_count": 111, "median_eta_min": 12.8, "bus_issue_rate": 0.427}, "geometry": {"type": "Point", "coordinates": [121.577706, 25.050118]}}, {"type": "Feature", "properties": {"data_time": "2026-05-02T17:06:39+08:00", "method_version": "last_mile_service_v1", "station_id": "TRTC-G03A", "station_name": "小碧潭", "city": "新北", "town": "新店區", "line_id": "G", "line_name": "松山新店線", "line_color": "#008659", "network_degree": 1, "station_type": "通勤型站", "service_score": 76, "risk_score": 24, "service_status": "watch", "status_label": "需觀察", "pickup_score": 0.667, "return_score": 1, "bus_score": 0.517, "coverage_score": 1, "bike_station_count": 6, "available_rent_bikes": 37, "available_return_bikes": 163, "bike_offline_rate": 0.0, "bus_stop_count": 47, "bus_eta_sample_count": 35, "median_eta_min": 14.7, "bus_issue_rate": 0.213}, "geometry": {"type": "Point", "coordinates": [121.53058, 24.97188]}}]}