{"type": "FeatureCollection", "name": "metro_last_mile_bl_stations", "features": [{"type": "Feature", "properties": {"data_time": "2026-05-02T17:06:39+08:00", "method_version": "last_mile_service_v1", "station_id": "TRTC-BL01", "station_name": "頂埔", "city": "新北", "town": "土城區", "line_id": "BL", "line_name": "板南線", "line_color": "#0070bd", "network_degree": 1, "station_type": "通勤型站", "service_score": 83, "risk_score": 17, "service_status": "good", "status_label": "穩定", "pickup_score": 1, "return_score": 1, "bus_score": 0.48, "coverage_score": 0.925, "bike_station_count": 5, "available_rent_bikes": 60, "available_return_bikes": 135, "bike_offline_rate": 0.0, "bus_stop_count": 50, "bus_eta_sample_count": 29, "median_eta_min": 13.6, "bus_issue_rate": 0.46}, "geometry": {"type": "Point", "coordinates": [121.418744, 24.959351]}}, {"type": "Feature", "properties": {"data_time": "2026-05-02T17:06:39+08:00", "method_version": "last_mile_service_v1", "station_id": "TRTC-BL02", "station_name": "永寧", "city": "新北", "town": "土城區", "line_id": "BL", "line_name": "板南線", "line_color": "#0070bd", "network_degree": 1, "station_type": "通勤型站", "service_score": 80, "risk_score": 20, "service_status": "good", "status_label": "穩定", "pickup_score": 1, "return_score": 1, "bus_score": 0.332, "coverage_score": 1, "bike_station_count": 8, "available_rent_bikes": 101, "available_return_bikes": 128, "bike_offline_rate": 0.0, "bus_stop_count": 89, "bus_eta_sample_count": 58, "median_eta_min": 18.4, "bus_issue_rate": 0.494}, "geometry": {"type": "Point", "coordinates": [121.43613, 24.96682]}}, {"type": "Feature", "properties": {"data_time": "2026-05-02T17:06:39+08:00", "method_version": "last_mile_service_v1", "station_id": "TRTC-BL03", "station_name": "土城", "city": "新北", "town": "土城區", "line_id": "BL", "line_name": "板南線", "line_color": "#0070bd", "network_degree": 1, "station_type": "通勤型站", "service_score": 70, "risk_score": 30, "service_status": "watch", "status_label": "需觀察", "pickup_score": 0.7, "return_score": 1, "bus_score": 0.3, "coverage_score": 1, "bike_station_count": 10, "available_rent_bikes": 73, "available_return_bikes": 176, "bike_offline_rate": 0.0, "bus_stop_count": 61, "bus_eta_sample_count": 39, "median_eta_min": 19.7, "bus_issue_rate": 0.475}, "geometry": {"type": "Point", "coordinates": [121.44432, 24.97313]}}, {"type": "Feature", "properties": {"data_time": "2026-05-02T17:06:39+08:00", "method_version": "last_mile_service_v1", "station_id": "TRTC-BL04", "station_name": "海山", "city": "新北", "town": "土城區", "line_id": "BL", "line_name": "板南線", "line_color": "#0070bd", "network_degree": 1, "station_type": "通勤型站", "service_score": 68, "risk_score": 32, "service_status": "watch", "status_label": "需觀察", "pickup_score": 0.467, "return_score": 1, "bus_score": 0.46, "coverage_score": 1, "bike_station_count": 15, "available_rent_bikes": 118, "available_return_bikes": 403, "bike_offline_rate": 0.0, "bus_stop_count": 105, "bus_eta_sample_count": 73, "median_eta_min": 14.5, "bus_issue_rate": 0.438}, "geometry": {"type": "Point", "coordinates": [121.448787, 24.985348]}}, {"type": "Feature", "properties": {"data_time": "2026-05-02T17:06:39+08:00", "method_version": "last_mile_service_v1", "station_id": "TRTC-BL05", "station_name": "亞東醫院", "city": "新北", "town": "板橋區", "line_id": "BL", "line_name": "板南線", "line_color": "#0070bd", "network_degree": 1, "station_type": "通勤型站", "service_score": 82, "risk_score": 18, "service_status": "good", "status_label": "穩定", "pickup_score": 0.9, "return_score": 1, "bus_score": 0.513, "coverage_score": 1, "bike_station_count": 10, "available_rent_bikes": 162, "available_return_bikes": 236, "bike_offline_rate": 0.0, "bus_stop_count": 118, "bus_eta_sample_count": 80, "median_eta_min": 13.2, "bus_issue_rate": 0.381}, "geometry": {"type": "Point", "coordinates": [121.452465, 24.99828]}}, {"type": "Feature", "properties": {"data_time": "2026-05-02T17:06:39+08:00", "method_version": "last_mile_service_v1", "station_id": "TRTC-BL06", "station_name": "府中", "city": "新北", "town": "板橋區", "line_id": "BL", "line_name": "板南線", "line_color": "#0070bd", "network_degree": 1, "station_type": "通勤型站", "service_score": 80, "risk_score": 20, "service_status": "good", "status_label": "穩定", "pickup_score": 0.9, "return_score": 0.9, "bus_score": 0.506, "coverage_score": 1, "bike_station_count": 10, "available_rent_bikes": 254, "available_return_bikes": 204, "bike_offline_rate": 0.0, "bus_stop_count": 218, "bus_eta_sample_count": 171, "median_eta_min": 14.3, "bus_issue_rate": 0.294}, "geometry": {"type": "Point", "coordinates": [121.459276, 25.008465]}}, {"type": "Feature", "properties": {"data_time": "2026-05-02T17:06:39+08:00", "method_version": "last_mile_service_v1", "station_id": "TRTC-BL07", "station_name": "板橋", "city": "新北", "town": "板橋區", "line_id": "BL", "line_name": "板南線", "line_color": "#0070bd", "network_degree": 1, "station_type": "通勤型站", "service_score": 86, "risk_score": 14, "service_status": "good", "status_label": "穩定", "pickup_score": 1, "return_score": 1, "bus_score": 0.533, "coverage_score": 1, "bike_station_count": 12, "available_rent_bikes": 342, "available_return_bikes": 393, "bike_offline_rate": 0.0, "bus_stop_count": 230, "bus_eta_sample_count": 175, "median_eta_min": 13.5, "bus_issue_rate": 0.278}, "geometry": {"type": "Point", "coordinates": [121.462671, 25.014098]}}, {"type": "Feature", "properties": {"data_time": "2026-05-02T17:06:39+08:00", "method_version": "last_mile_service_v1", "station_id": "TRTC-BL08", "station_name": "新埔", "city": "新北", "town": "板橋區", "line_id": "BL", "line_name": "板南線", "line_color": "#0070bd", "network_degree": 1, "station_type": "通勤型站", "service_score": 82, "risk_score": 18, "service_status": "good", "status_label": "穩定", "pickup_score": 0.933, "return_score": 1, "bus_score": 0.451, "coverage_score": 1, "bike_station_count": 15, "available_rent_bikes": 156, "available_return_bikes": 544, "bike_offline_rate": 0.0, "bus_stop_count": 193, "bus_eta_sample_count": 131, "median_eta_min": 15.9, "bus_issue_rate": 0.326}, "geometry": {"type": "Point", "coordinates": [121.468363, 25.023736]}}, {"type": "Feature", "properties": {"data_time": "2026-05-02T17:06:39+08:00", "method_version": "last_mile_service_v1", "station_id": "TRTC-BL09", "station_name": "江子翠", "city": "新北", "town": "板橋區", "line_id": "BL", "line_name": "板南線", "line_color": "#0070bd", "network_degree": 1, "station_type": "通勤型站", "service_score": 76, "risk_score": 24, "service_status": "watch", "status_label": "需觀察", "pickup_score": 0.647, "return_score": 1, "bus_score": 0.565, "coverage_score": 1, "bike_station_count": 17, "available_rent_bikes": 81, "available_return_bikes": 424, "bike_offline_rate": 0.0, "bus_stop_count": 86, "bus_eta_sample_count": 65, "median_eta_min": 12.4, "bus_issue_rate": 0.279}, "geometry": {"type": "Point", "coordinates": [121.47257, 25.030265]}}, {"type": "Feature", "properties": {"data_time": "2026-05-02T17:06:39+08:00", "method_version": "last_mile_service_v1", "station_id": "TRTC-BL10", "station_name": "龍山寺", "city": "臺北", "town": "萬華區", "line_id": "BL", "line_name": "板南線", "line_color": "#0070bd", "network_degree": 1, "station_type": "通勤型站", "service_score": 81, "risk_score": 19, "service_status": "good", "status_label": "穩定", "pickup_score": 0.824, "return_score": 0.941, "bus_score": 0.595, "coverage_score": 1, "bike_station_count": 17, "available_rent_bikes": 282, "available_return_bikes": 300, "bike_offline_rate": 0.118, "bus_stop_count": 269, "bus_eta_sample_count": 189, "median_eta_min": 11.3, "bus_issue_rate": 0.283}, "geometry": {"type": "Point", "coordinates": [121.500325, 25.03528]}}, {"type": "Feature", "properties": {"data_time": "2026-05-02T17:06:39+08:00", "method_version": "last_mile_service_v1", "station_id": "TRTC-BL11", "station_name": "西門", "city": "臺北", "town": "中正區", "line_id": "BL", "line_name": "板南線", "line_color": "#0070bd", "network_degree": 2, "station_type": "轉乘型站", "service_score": 84, "risk_score": 16, "service_status": "good", "status_label": "穩定", "pickup_score": 1, "return_score": 0.923, "bus_score": 0.547, "coverage_score": 1, "bike_station_count": 13, "available_rent_bikes": 307, "available_return_bikes": 214, "bike_offline_rate": 0.0, "bus_stop_count": 422, "bus_eta_sample_count": 279, "median_eta_min": 12.4, "bus_issue_rate": 0.344}, "geometry": {"type": "Point", "coordinates": [121.508511, 25.042274]}}, {"type": "Feature", "properties": {"data_time": "2026-05-02T17:06:39+08:00", "method_version": "last_mile_service_v1", "station_id": "TRTC-BL12", "station_name": "台北車站", "city": "臺北", "town": "中正區", "line_id": "BL", "line_name": "板南線", "line_color": "#0070bd", "network_degree": 2, "station_type": "轉乘型站", "service_score": 80, "risk_score": 20, "service_status": "good", "status_label": "穩定", "pickup_score": 0.923, "return_score": 0.923, "bus_score": 0.49, "coverage_score": 1, "bike_station_count": 13, "available_rent_bikes": 276, "available_return_bikes": 205, "bike_offline_rate": 0.0, "bus_stop_count": 308, "bus_eta_sample_count": 234, "median_eta_min": 15.3, "bus_issue_rate": 0.247}, "geometry": {"type": "Point", "coordinates": [121.517415, 25.04631]}}, {"type": "Feature", "properties": {"data_time": "2026-05-02T17:06:39+08:00", "method_version": "last_mile_service_v1", "station_id": "TRTC-BL13", "station_name": "善導寺", "city": "臺北", "town": "中正區", "line_id": "BL", "line_name": "板南線", "line_color": "#0070bd", "network_degree": 1, "station_type": "通勤型站", "service_score": 79, "risk_score": 21, "service_status": "watch", "status_label": "需觀察", "pickup_score": 0.952, "return_score": 0.952, "bus_score": 0.398, "coverage_score": 1, "bike_station_count": 21, "available_rent_bikes": 282, "available_return_bikes": 393, "bike_offline_rate": 0.0, "bus_stop_count": 203, "bus_eta_sample_count": 131, "median_eta_min": 17.7, "bus_issue_rate": 0.33}, "geometry": {"type": "Point", "coordinates": [121.523885, 25.04468]}}, {"type": "Feature", "properties": {"data_time": "2026-05-02T17:06:39+08:00", "method_version": "last_mile_service_v1", "station_id": "TRTC-BL14", "station_name": "忠孝新生", "city": "臺北", "town": "中正區", "line_id": "BL", "line_name": "板南線", "line_color": "#0070bd", "network_degree": 1, "station_type": "通勤型站", "service_score": 82, "risk_score": 18, "service_status": "good", "status_label": "穩定", "pickup_score": 0.905, "return_score": 0.952, "bus_score": 0.526, "coverage_score": 1, "bike_station_count": 21, "available_rent_bikes": 266, "available_return_bikes": 445, "bike_offline_rate": 0.0, "bus_stop_count": 183, "bus_eta_sample_count": 127, "median_eta_min": 13.6, "bus_issue_rate": 0.295}, "geometry": {"type": "Point", "coordinates": [121.5328, 25.0423]}}, {"type": "Feature", "properties": {"data_time": "2026-05-02T17:06:39+08:00", "method_version": "last_mile_service_v1", "station_id": "TRTC-BL15", "station_name": "忠孝復興", "city": "臺北", "town": "大安區", "line_id": "BL", "line_name": "板南線", "line_color": "#0070bd", "network_degree": 1, "station_type": "通勤型站", "service_score": 75, "risk_score": 25, "service_status": "watch", "status_label": "需觀察", "pickup_score": 0.895, "return_score": 0.684, "bus_score": 0.532, "coverage_score": 1, "bike_station_count": 19, "available_rent_bikes": 352, "available_return_bikes": 218, "bike_offline_rate": 0.0, "bus_stop_count": 120, "bus_eta_sample_count": 93, "median_eta_min": 14.0, "bus_issue_rate": 0.233}, "geometry": {"type": "Point", "coordinates": [121.543769, 25.041633]}}, {"type": "Feature", "properties": {"data_time": "2026-05-02T17:06:39+08:00", "method_version": "last_mile_service_v1", "station_id": "TRTC-BL16", "station_name": "忠孝敦化", "city": "臺北", "town": "大安區", "line_id": "BL", "line_name": "板南線", "line_color": "#0070bd", "network_degree": 1, "station_type": "通勤型站", "service_score": 75, "risk_score": 25, "service_status": "watch", "status_label": "需觀察", "pickup_score": 0.733, "return_score": 0.867, "bus_score": 0.538, "coverage_score": 1, "bike_station_count": 15, "available_rent_bikes": 186, "available_return_bikes": 191, "bike_offline_rate": 0.067, "bus_stop_count": 287, "bus_eta_sample_count": 196, "median_eta_min": 13.3, "bus_issue_rate": 0.282}, "geometry": {"type": "Point", "coordinates": [121.55045, 25.041505]}}, {"type": "Feature", "properties": {"data_time": "2026-05-02T17:06:39+08:00", "method_version": "last_mile_service_v1", "station_id": "TRTC-BL17", "station_name": "國父紀念館", "city": "臺北", "town": "信義區", "line_id": "BL", "line_name": "板南線", "line_color": "#0070bd", "network_degree": 1, "station_type": "通勤型站", "service_score": 78, "risk_score": 22, "service_status": "watch", "status_label": "需觀察", "pickup_score": 1, "return_score": 0.769, "bus_score": 0.473, "coverage_score": 1, "bike_station_count": 13, "available_rent_bikes": 240, "available_return_bikes": 149, "bike_offline_rate": 0.0, "bus_stop_count": 143, "bus_eta_sample_count": 100, "median_eta_min": 15.5, "bus_issue_rate": 0.287}, "geometry": {"type": "Point", "coordinates": [121.557815, 25.04137]}}, {"type": "Feature", "properties": {"data_time": "2026-05-02T17:06:39+08:00", "method_version": "last_mile_service_v1", "station_id": "TRTC-BL18", "station_name": "市政府", "city": "臺北", "town": "信義區", "line_id": "BL", "line_name": "板南線", "line_color": "#0070bd", "network_degree": 1, "station_type": "通勤型站", "service_score": 77, "risk_score": 23, "service_status": "watch", "status_label": "需觀察", "pickup_score": 0.923, "return_score": 0.846, "bus_score": 0.441, "coverage_score": 1, "bike_station_count": 13, "available_rent_bikes": 256, "available_return_bikes": 254, "bike_offline_rate": 0.077, "bus_stop_count": 203, "bus_eta_sample_count": 116, "median_eta_min": 15.2, "bus_issue_rate": 0.433}, "geometry": {"type": "Point", "coordinates": [121.565685, 25.041135]}}, {"type": "Feature", "properties": {"data_time": "2026-05-02T17:06:39+08:00", "method_version": "last_mile_service_v1", "station_id": "TRTC-BL19", "station_name": "永春", "city": "臺北", "town": "信義區", "line_id": "BL", "line_name": "板南線", "line_color": "#0070bd", "network_degree": 1, "station_type": "通勤型站", "service_score": 81, "risk_score": 19, "service_status": "good", "status_label": "穩定", "pickup_score": 0.8, "return_score": 1, "bus_score": 0.551, "coverage_score": 1, "bike_station_count": 10, "available_rent_bikes": 82, "available_return_bikes": 225, "bike_offline_rate": 0.0, "bus_stop_count": 179, "bus_eta_sample_count": 118, "median_eta_min": 12.1, "bus_issue_rate": 0.358}, "geometry": {"type": "Point", "coordinates": [121.5762, 25.040855]}}, {"type": "Feature", "properties": {"data_time": "2026-05-02T17:06:39+08:00", "method_version": "last_mile_service_v1", "station_id": "TRTC-BL20", "station_name": "後山埤", "city": "臺北", "town": "南港區", "line_id": "BL", "line_name": "板南線", "line_color": "#0070bd", "network_degree": 1, "station_type": "通勤型站", "service_score": 78, "risk_score": 22, "service_status": "watch", "status_label": "需觀察", "pickup_score": 0.833, "return_score": 0.889, "bus_score": 0.531, "coverage_score": 1, "bike_station_count": 18, "available_rent_bikes": 181, "available_return_bikes": 281, "bike_offline_rate": 0.0, "bus_stop_count": 144, "bus_eta_sample_count": 102, "median_eta_min": 13.3, "bus_issue_rate": 0.306}, "geometry": {"type": "Point", "coordinates": [121.58227, 25.044715]}}, {"type": "Feature", "properties": {"data_time": "2026-05-02T17:06:39+08:00", "method_version": "last_mile_service_v1", "station_id": "TRTC-BL21", "station_name": "昆陽", "city": "臺北", "town": "南港區", "line_id": "BL", "line_name": "板南線", "line_color": "#0070bd", "network_degree": 1, "station_type": "通勤型站", "service_score": 78, "risk_score": 22, "service_status": "watch", "status_label": "需觀察", "pickup_score": 0.857, "return_score": 0.929, "bus_score": 0.469, "coverage_score": 1, "bike_station_count": 14, "available_rent_bikes": 176, "available_return_bikes": 233, "bike_offline_rate": 0.0, "bus_stop_count": 183, "bus_eta_sample_count": 134, "median_eta_min": 15.0, "bus_issue_rate": 0.355}, "geometry": {"type": "Point", "coordinates": [121.593228, 25.050459]}}, {"type": "Feature", "properties": {"data_time": "2026-05-02T17:06:39+08:00", "method_version": "last_mile_service_v1", "station_id": "TRTC-BL22", "station_name": "南港", "city": "臺北", "town": "南港區", "line_id": "BL", "line_name": "板南線", "line_color": "#0070bd", "network_degree": 1, "station_type": "通勤型站", "service_score": 69, "risk_score": 31, "service_status": "watch", "status_label": "需觀察", "pickup_score": 0.692, "return_score": 0.846, "bus_score": 0.392, "coverage_score": 1, "bike_station_count": 13, "available_rent_bikes": 185, "available_return_bikes": 166, "bike_offline_rate": 0.0, "bus_stop_count": 236, "bus_eta_sample_count": 158, "median_eta_min": 16.4, "bus_issue_rate": 0.483}, "geometry": {"type": "Point", "coordinates": [121.60697, 25.052035]}}, {"type": "Feature", "properties": {"data_time": "2026-05-02T17:06:39+08:00", "method_version": "last_mile_service_v1", "station_id": "TRTC-BL23", "station_name": "南港展覽館", "city": "臺北", "town": "南港區", "line_id": "BL", "line_name": "板南線", "line_color": "#0070bd", "network_degree": 2, "station_type": "轉乘型站", "service_score": 81, "risk_score": 19, "service_status": "good", "status_label": "穩定", "pickup_score": 1, "return_score": 0.923, "bus_score": 0.428, "coverage_score": 1, "bike_station_count": 13, "available_rent_bikes": 229, "available_return_bikes": 236, "bike_offline_rate": 0.0, "bus_stop_count": 260, "bus_eta_sample_count": 172, "median_eta_min": 15.1, "bus_issue_rate": 0.488}, "geometry": {"type": "Point", "coordinates": [121.616861, 25.054919]}}]}