{"type": "FeatureCollection", "features": [{"type": "Feature", "geometry": {"type": "Polygon", "coordinates": [[[121.524, 25.044], [121.536, 25.044], [121.536, 25.056], [121.524, 25.056], [121.524, 25.044]]]}, "properties": {"cell_id": "10127_2087", "city": "TPE", "area": "中山區", "lot_count": 24, "realtime_lot_count": 24, "total_capacity": 3723, "realtime_capacity": 3723, "total_available": 922, "utilization": 0.7523502551705614, "avg_available_rate": 0.36843642854050485, "tight_count": 4, "pressure_label": "偏高"}}, {"type": "Feature", "geometry": {"type": "Polygon", "coordinates": [[[121.56, 25.032], [121.572, 25.032], [121.572, 25.044], [121.56, 25.044], [121.56, 25.032]]]}, "properties": {"cell_id": "10130_2086", "city": "TPE", "area": "信義區", "lot_count": 29, "realtime_lot_count": 29, "total_capacity": 9245, "realtime_capacity": 9245, "total_available": 1940, "utilization": 0.7901568415359654, "avg_available_rate": 0.31857182548856805, "tight_count": 10, "pressure_label": "偏高"}}, {"type": "Feature", "geometry": {"type": "Polygon", "coordinates": [[[121.548, 25.056], [121.56, 25.056], [121.56, 25.068], [121.548, 25.068], [121.548, 25.056]]]}, "properties": {"cell_id": "10129_2088", "city": "TPE", "area": "松山區", "lot_count": 12, "realtime_lot_count": 12, "total_capacity": 2622, "realtime_capacity": 2622, "total_available": 630, "utilization": 0.7597254004576659, "avg_available_rate": 0.30194800240622965, "tight_count": 3, "pressure_label": "偏高"}}, {"type": "Feature", "geometry": {"type": "Polygon", "coordinates": [[[121.572, 24.996000000000002], [121.584, 24.996000000000002], [121.584, 25.008000000000003], [121.572, 25.008000000000003], [121.572, 24.996000000000002]]]}, "properties": {"cell_id": "10131_2083", "city": "TPE", "area": "文山區", "lot_count": 3, "realtime_lot_count": 3, "total_capacity": 1524, "realtime_capacity": 1524, "total_available": 511, "utilization": 0.6646981627296589, "avg_available_rate": 0.18381935458281895, "tight_count": 1, "pressure_label": "中等"}}, {"type": "Feature", "geometry": {"type": "Polygon", "coordinates": [[[121.5, 25.044], [121.512, 25.044], [121.512, 25.056], [121.5, 25.056], [121.5, 25.044]]]}, "properties": {"cell_id": "10125_2087", "city": "TPE", "area": "萬華區", "lot_count": 9, "realtime_lot_count": 9, "total_capacity": 3021, "realtime_capacity": 3021, "total_available": 306, "utilization": 0.8987090367428003, "avg_available_rate": 0.2780245471619039, "tight_count": 5, "pressure_label": "偏高"}}, {"type": "Feature", "geometry": {"type": "Polygon", "coordinates": [[[121.512, 25.068], [121.524, 25.068], [121.524, 25.080000000000002], [121.512, 25.080000000000002], [121.512, 25.068]]]}, "properties": {"cell_id": "10126_2089", "city": "TPE", "area": "大同區", "lot_count": 5, "realtime_lot_count": 5, "total_capacity": 503, "realtime_capacity": 503, "total_available": 65, "utilization": 0.8707753479125249, "avg_available_rate": 0.198875094713528, "tight_count": 3, "pressure_label": "偏高"}}, {"type": "Feature", "geometry": {"type": "Polygon", "coordinates": [[[121.548, 25.044], [121.56, 25.044], [121.56, 25.056], [121.548, 25.056], [121.548, 25.044]]]}, "properties": {"cell_id": "10129_2087", "city": "TPE", "area": "松山區", "lot_count": 23, "realtime_lot_count": 23, "total_capacity": 2467, "realtime_capacity": 2467, "total_available": 1012, "utilization": 0.5897851641670044, "avg_available_rate": 0.4328016234178428, "tight_count": 5, "pressure_label": "中等"}}, {"type": "Feature", "geometry": {"type": "Polygon", "coordinates": [[[121.524, 25.056], [121.536, 25.056], [121.536, 25.068], [121.524, 25.068], [121.524, 25.056]]]}, "properties": {"cell_id": "10127_2088", "city": "TPE", "area": "中山區", "lot_count": 15, "realtime_lot_count": 15, "total_capacity": 737, "realtime_capacity": 737, "total_available": 315, "utilization": 0.5725915875169607, "avg_available_rate": 0.48357222627609275, "tight_count": 3, "pressure_label": "中等"}}, {"type": "Feature", "geometry": {"type": "Polygon", "coordinates": [[[121.5, 25.032], [121.512, 25.032], [121.512, 25.044], [121.5, 25.044], [121.5, 25.032]]]}, "properties": {"cell_id": "10125_2086", "city": "TPE", "area": "萬華區", "lot_count": 15, "realtime_lot_count": 15, "total_capacity": 910, "realtime_capacity": 910, "total_available": 310, "utilization": 0.6593406593406593, "avg_available_rate": 0.32517926709203027, "tight_count": 5, "pressure_label": "中等"}}, {"type": "Feature", "geometry": {"type": "Polygon", "coordinates": [[[121.524, 25.032], [121.536, 25.032], [121.536, 25.044], [121.524, 25.044], [121.524, 25.032]]]}, "properties": {"cell_id": "10127_2086", "city": "TPE", "area": "中正區", "lot_count": 18, "realtime_lot_count": 18, "total_capacity": 644, "realtime_capacity": 644, "total_available": 227, "utilization": 0.6475155279503105, "avg_available_rate": 0.36087896739435, "tight_count": 4, "pressure_label": "中等"}}, {"type": "Feature", "geometry": {"type": "Polygon", "coordinates": [[[121.512, 25.044], [121.524, 25.044], [121.524, 25.056], [121.512, 25.056], [121.512, 25.044]]]}, "properties": {"cell_id": "10126_2087", "city": "TPE", "area": "中正區", "lot_count": 30, "realtime_lot_count": 30, "total_capacity": 4652, "realtime_capacity": 4652, "total_available": 1079, "utilization": 0.7680567497850387, "avg_available_rate": 0.323127550202414, "tight_count": 12, "pressure_label": "偏高"}}, {"type": "Feature", "geometry": {"type": "Polygon", "coordinates": [[[121.512, 25.092], [121.524, 25.092], [121.524, 25.104], [121.512, 25.104], [121.512, 25.092]]]}, "properties": {"cell_id": "10126_2091", "city": "TPE", "area": "士林區", "lot_count": 10, "realtime_lot_count": 10, "total_capacity": 2118, "realtime_capacity": 2118, "total_available": 544, "utilization": 0.7431539187913125, "avg_available_rate": 0.2320231871321136, "tight_count": 2, "pressure_label": "偏高"}}, {"type": "Feature", "geometry": {"type": "Polygon", "coordinates": [[[121.512, 25.116], [121.524, 25.116], [121.524, 25.128], [121.512, 25.128], [121.512, 25.116]]]}, "properties": {"cell_id": "10126_2093", "city": "TPE", "area": "北投區", "lot_count": 10, "realtime_lot_count": 10, "total_capacity": 1744, "realtime_capacity": 1744, "total_available": 2045, "utilization": -0.17259174311926606, "avg_available_rate": 5.851690143209959, "tight_count": 2, "pressure_label": "寬鬆"}}, {"type": "Feature", "geometry": {"type": "Polygon", "coordinates": [[[121.56, 25.044], [121.572, 25.044], [121.572, 25.056], [121.56, 25.056], [121.56, 25.044]]]}, "properties": {"cell_id": "10130_2087", "city": "TPE", "area": "松山區", "lot_count": 22, "realtime_lot_count": 22, "total_capacity": 2768, "realtime_capacity": 2768, "total_available": 829, "utilization": 0.7005057803468209, "avg_available_rate": 0.33969899961223654, "tight_count": 5, "pressure_label": "偏高"}}, {"type": "Feature", "geometry": {"type": "Polygon", "coordinates": [[[121.56, 25.056], [121.572, 25.056], [121.572, 25.068], [121.56, 25.068], [121.56, 25.056]]]}, "properties": {"cell_id": "10130_2088", "city": "TPE", "area": "松山區", "lot_count": 3, "realtime_lot_count": 3, "total_capacity": 361, "realtime_capacity": 361, "total_available": 26, "utilization": 0.9279778393351801, "avg_available_rate": 0.17343282919316716, "tight_count": 2, "pressure_label": "高壓"}}, {"type": "Feature", "geometry": {"type": "Polygon", "coordinates": [[[121.512, 25.080000000000002], [121.524, 25.080000000000002], [121.524, 25.092000000000002], [121.512, 25.092000000000002], [121.512, 25.080000000000002]]]}, "properties": {"cell_id": "10126_2090", "city": "TPE", "area": "士林區", "lot_count": 8, "realtime_lot_count": 8, "total_capacity": 1240, "realtime_capacity": 1240, "total_available": 202, "utilization": 0.8370967741935484, "avg_available_rate": 0.22730903150605303, "tight_count": 3, "pressure_label": "偏高"}}, {"type": "Feature", "geometry": {"type": "Polygon", "coordinates": [[[121.536, 25.044], [121.548, 25.044], [121.548, 25.056], [121.536, 25.056], [121.536, 25.044]]]}, "properties": {"cell_id": "10128_2087", "city": "TPE", "area": "中山區", "lot_count": 33, "realtime_lot_count": 33, "total_capacity": 4001, "realtime_capacity": 4001, "total_available": 1655, "utilization": 0.5863534116470882, "avg_available_rate": 0.6221243142235097, "tight_count": 4, "pressure_label": "中等"}}, {"type": "Feature", "geometry": {"type": "Polygon", "coordinates": [[[121.536, 25.032], [121.548, 25.032], [121.548, 25.044], [121.536, 25.044], [121.536, 25.032]]]}, "properties": {"cell_id": "10128_2086", "city": "TPE", "area": "大安區", "lot_count": 22, "realtime_lot_count": 22, "total_capacity": 2667, "realtime_capacity": 2667, "total_available": 323, "utilization": 0.8788901387326584, "avg_available_rate": 0.17979063534026138, "tight_count": 12, "pressure_label": "偏高"}}, {"type": "Feature", "geometry": {"type": "Polygon", "coordinates": [[[121.56, 24.984], [121.572, 24.984], [121.572, 24.996000000000002], [121.56, 24.996000000000002], [121.56, 24.984]]]}, "properties": {"cell_id": "10130_2082", "city": "TPE", "area": "文山區", "lot_count": 4, "realtime_lot_count": 4, "total_capacity": 619, "realtime_capacity": 619, "total_available": 183, "utilization": 0.7043618739903069, "avg_available_rate": 0.18699057729646645, "tight_count": 2, "pressure_label": "偏高"}}, {"type": "Feature", "geometry": {"type": "Polygon", "coordinates": [[[121.548, 25.02], [121.56, 25.02], [121.56, 25.032], [121.548, 25.032], [121.548, 25.02]]]}, "properties": {"cell_id": "10129_2085", "city": "TPE", "area": "大安區", "lot_count": 18, "realtime_lot_count": 18, "total_capacity": 2105, "realtime_capacity": 2105, "total_available": 691, "utilization": 0.6717339667458433, "avg_available_rate": 0.5273915082249099, "tight_count": 1, "pressure_label": "中等"}}, {"type": "Feature", "geometry": {"type": "Polygon", "coordinates": [[[121.572, 25.044], [121.584, 25.044], [121.584, 25.056], [121.572, 25.056], [121.572, 25.044]]]}, "properties": {"cell_id": "10131_2087", "city": "TPE", "area": "信義區", "lot_count": 12, "realtime_lot_count": 12, "total_capacity": 1680, "realtime_capacity": 1680, "total_available": 341, "utilization": 0.7970238095238096, "avg_available_rate": 0.23013767778941296, "tight_count": 4, "pressure_label": "偏高"}}, {"type": "Feature", "geometry": {"type": "Polygon", "coordinates": [[[121.536, 24.996000000000002], [121.548, 24.996000000000002], [121.548, 25.008000000000003], [121.536, 25.008000000000003], [121.536, 24.996000000000002]]]}, "properties": {"cell_id": "10128_2083", "city": "TPE", "area": "文山區", "lot_count": 4, "realtime_lot_count": 4, "total_capacity": 575, "realtime_capacity": 575, "total_available": 106, "utilization": 0.8156521739130435, "avg_available_rate": 0.23118012301138105, "tight_count": 0, "pressure_label": "偏高"}}, {"type": "Feature", "geometry": {"type": "Polygon", "coordinates": [[[121.488, 25.128], [121.5, 25.128], [121.5, 25.14], [121.488, 25.14], [121.488, 25.128]]]}, "properties": {"cell_id": "10124_2094", "city": "TPE", "area": "北投區", "lot_count": 3, "realtime_lot_count": 3, "total_capacity": 493, "realtime_capacity": 493, "total_available": 193, "utilization": 0.6085192697768762, "avg_available_rate": 0.4234552516339458, "tight_count": 0, "pressure_label": "中等"}}, {"type": "Feature", "geometry": {"type": "Polygon", "coordinates": [[[121.524, 25.02], [121.536, 25.02], [121.536, 25.032], [121.524, 25.032], [121.524, 25.02]]]}, "properties": {"cell_id": "10127_2085", "city": "TPE", "area": "大安區", "lot_count": 15, "realtime_lot_count": 15, "total_capacity": 561, "realtime_capacity": 561, "total_available": 62, "utilization": 0.8894830659536542, "avg_available_rate": 0.2328861276733813, "tight_count": 4, "pressure_label": "偏高"}}, {"type": "Feature", "geometry": {"type": "Polygon", "coordinates": [[[121.512, 25.032], [121.524, 25.032], [121.524, 25.044], [121.512, 25.044], [121.512, 25.032]]]}, "properties": {"cell_id": "10126_2086", "city": "TPE", "area": "中正區", "lot_count": 10, "realtime_lot_count": 10, "total_capacity": 1426, "realtime_capacity": 1426, "total_available": 416, "utilization": 0.7082748948106592, "avg_available_rate": 0.48604212444735867, "tight_count": 2, "pressure_label": "偏高"}}, {"type": "Feature", "geometry": {"type": "Polygon", "coordinates": [[[121.524, 25.116], [121.536, 25.116], [121.536, 25.128], [121.524, 25.128], [121.524, 25.116]]]}, "properties": {"cell_id": "10127_2093", "city": "TPE", "area": "士林區", "lot_count": 11, "realtime_lot_count": 11, "total_capacity": 772, "realtime_capacity": 772, "total_available": 34, "utilization": 0.9559585492227979, "avg_available_rate": 0.10241333041919552, "tight_count": 9, "pressure_label": "高壓"}}, {"type": "Feature", "geometry": {"type": "Polygon", "coordinates": [[[121.5, 25.02], [121.512, 25.02], [121.512, 25.032], [121.5, 25.032], [121.5, 25.02]]]}, "properties": {"cell_id": "10125_2085", "city": "TPE", "area": "萬華區", "lot_count": 11, "realtime_lot_count": 11, "total_capacity": 1791, "realtime_capacity": 1791, "total_available": 296, "utilization": 0.8347292015633724, "avg_available_rate": 0.21298526747481789, "tight_count": 4, "pressure_label": "偏高"}}, {"type": "Feature", "geometry": {"type": "Polygon", "coordinates": [[[121.536, 25.02], [121.548, 25.02], [121.548, 25.032], [121.536, 25.032], [121.536, 25.02]]]}, "properties": {"cell_id": "10128_2085", "city": "TPE", "area": "大安區", "lot_count": 19, "realtime_lot_count": 19, "total_capacity": 4042, "realtime_capacity": 4042, "total_available": 603, "utilization": 0.8508164275111331, "avg_available_rate": 0.3410829148813819, "tight_count": 7, "pressure_label": "偏高"}}, {"type": "Feature", "geometry": {"type": "Polygon", "coordinates": [[[121.5, 25.128], [121.512, 25.128], [121.512, 25.14], [121.5, 25.14], [121.5, 25.128]]]}, "properties": {"cell_id": "10125_2094", "city": "TPE", "area": "北投區", "lot_count": 6, "realtime_lot_count": 6, "total_capacity": 720, "realtime_capacity": 720, "total_available": 193, "utilization": 0.7319444444444445, "avg_available_rate": 0.4698698997479485, "tight_count": 1, "pressure_label": "偏高"}}, {"type": "Feature", "geometry": {"type": "Polygon", "coordinates": [[[121.5, 25.116], [121.512, 25.116], [121.512, 25.128], [121.5, 25.128], [121.5, 25.116]]]}, "properties": {"cell_id": "10125_2093", "city": "TPE", "area": "北投區", "lot_count": 9, "realtime_lot_count": 9, "total_capacity": 908, "realtime_capacity": 908, "total_available": 278, "utilization": 0.6938325991189427, "avg_available_rate": 0.32284183185745297, "tight_count": 3, "pressure_label": "中等"}}, {"type": "Feature", "geometry": {"type": "Polygon", "coordinates": [[[121.572, 25.032], [121.584, 25.032], [121.584, 25.044], [121.572, 25.044], [121.572, 25.032]]]}, "properties": {"cell_id": "10131_2086", "city": "TPE", "area": "信義區", "lot_count": 10, "realtime_lot_count": 10, "total_capacity": 2750, "realtime_capacity": 2750, "total_available": 587, "utilization": 0.7865454545454545, "avg_available_rate": 0.22673248634684243, "tight_count": 3, "pressure_label": "偏高"}}, {"type": "Feature", "geometry": {"type": "Polygon", "coordinates": [[[121.464, 25.128], [121.476, 25.128], [121.476, 25.14], [121.464, 25.14], [121.464, 25.128]]]}, "properties": {"cell_id": "10122_2094", "city": "TPE", "area": "北投區", "lot_count": 4, "realtime_lot_count": 4, "total_capacity": 804, "realtime_capacity": 804, "total_available": 251, "utilization": 0.6878109452736318, "avg_available_rate": 1.3644083060017378, "tight_count": 2, "pressure_label": "中等"}}, {"type": "Feature", "geometry": {"type": "Polygon", "coordinates": [[[121.548, 25.008], [121.56, 25.008], [121.56, 25.02], [121.548, 25.02], [121.548, 25.008]]]}, "properties": {"cell_id": "10129_2084", "city": "TPE", "area": "大安區", "lot_count": 4, "realtime_lot_count": 4, "total_capacity": 554, "realtime_capacity": 554, "total_available": 353, "utilization": 0.36281588447653434, "avg_available_rate": 0.5821307312416154, "tight_count": 0, "pressure_label": "寬鬆"}}, {"type": "Feature", "geometry": {"type": "Polygon", "coordinates": [[[121.524, 25.104], [121.536, 25.104], [121.536, 25.116], [121.524, 25.116], [121.524, 25.104]]]}, "properties": {"cell_id": "10127_2092", "city": "TPE", "area": "士林區", "lot_count": 12, "realtime_lot_count": 12, "total_capacity": 414, "realtime_capacity": 414, "total_available": 75, "utilization": 0.8188405797101449, "avg_available_rate": 0.2316133840733383, "tight_count": 6, "pressure_label": "偏高"}}, {"type": "Feature", "geometry": {"type": "Polygon", "coordinates": [[[121.524, 25.068], [121.536, 25.068], [121.536, 25.080000000000002], [121.524, 25.080000000000002], [121.524, 25.068]]]}, "properties": {"cell_id": "10127_2089", "city": "TPE", "area": "中山區", "lot_count": 1, "realtime_lot_count": 1, "total_capacity": 114, "realtime_capacity": 114, "total_available": 0, "utilization": 1.0, "avg_available_rate": 0.0, "tight_count": 1, "pressure_label": "高壓"}}, {"type": "Feature", "geometry": {"type": "Polygon", "coordinates": [[[121.548, 24.996000000000002], [121.56, 24.996000000000002], [121.56, 25.008000000000003], [121.548, 25.008000000000003], [121.548, 24.996000000000002]]]}, "properties": {"cell_id": "10129_2083", "city": "TPE", "area": "文山區", "lot_count": 6, "realtime_lot_count": 6, "total_capacity": 913, "realtime_capacity": 913, "total_available": 276, "utilization": 0.6976998904709748, "avg_available_rate": 0.22788175091964988, "tight_count": 1, "pressure_label": "中等"}}, {"type": "Feature", "geometry": {"type": "Polygon", "coordinates": [[[121.584, 24.996000000000002], [121.596, 24.996000000000002], [121.596, 25.008000000000003], [121.584, 25.008000000000003], [121.584, 24.996000000000002]]]}, "properties": {"cell_id": "10132_2083", "city": "TPE", "area": "文山區", "lot_count": 1, "realtime_lot_count": 1, "total_capacity": 678, "realtime_capacity": 678, "total_available": 0, "utilization": 1.0, "avg_available_rate": 0.0, "tight_count": 1, "pressure_label": "高壓"}}, {"type": "Feature", "geometry": {"type": "Polygon", "coordinates": [[[121.524, 25.092], [121.536, 25.092], [121.536, 25.104], [121.524, 25.104], [121.524, 25.092]]]}, "properties": {"cell_id": "10127_2091", "city": "TPE", "area": "士林區", "lot_count": 7, "realtime_lot_count": 7, "total_capacity": 624, "realtime_capacity": 624, "total_available": 147, "utilization": 0.7644230769230769, "avg_available_rate": 0.26410469650718554, "tight_count": 2, "pressure_label": "偏高"}}, {"type": "Feature", "geometry": {"type": "Polygon", "coordinates": [[[121.584, 25.044], [121.596, 25.044], [121.596, 25.056], [121.584, 25.056], [121.584, 25.044]]]}, "properties": {"cell_id": "10132_2087", "city": "TPE", "area": "南港區", "lot_count": 7, "realtime_lot_count": 7, "total_capacity": 1540, "realtime_capacity": 1540, "total_available": 917, "utilization": 0.40454545454545454, "avg_available_rate": 0.4267298856123496, "tight_count": 1, "pressure_label": "寬鬆"}}, {"type": "Feature", "geometry": {"type": "Polygon", "coordinates": [[[121.5, 25.080000000000002], [121.512, 25.080000000000002], [121.512, 25.092000000000002], [121.5, 25.092000000000002], [121.5, 25.080000000000002]]]}, "properties": {"cell_id": "10125_2090", "city": "TPE", "area": "士林區", "lot_count": 4, "realtime_lot_count": 4, "total_capacity": 433, "realtime_capacity": 433, "total_available": 63, "utilization": 0.8545034642032332, "avg_available_rate": 0.2630244967256852, "tight_count": 2, "pressure_label": "偏高"}}, {"type": "Feature", "geometry": {"type": "Polygon", "coordinates": [[[121.524, 25.008], [121.536, 25.008], [121.536, 25.02], [121.524, 25.02], [121.524, 25.008]]]}, "properties": {"cell_id": "10127_2084", "city": "TPE", "area": "中正區", "lot_count": 9, "realtime_lot_count": 9, "total_capacity": 598, "realtime_capacity": 598, "total_available": 275, "utilization": 0.540133779264214, "avg_available_rate": 0.4888744887136735, "tight_count": 3, "pressure_label": "中等"}}, {"type": "Feature", "geometry": {"type": "Polygon", "coordinates": [[[121.512, 25.056], [121.524, 25.056], [121.524, 25.068], [121.512, 25.068], [121.512, 25.056]]]}, "properties": {"cell_id": "10126_2088", "city": "TPE", "area": "中山區", "lot_count": 14, "realtime_lot_count": 14, "total_capacity": 1608, "realtime_capacity": 1608, "total_available": 575, "utilization": 0.6424129353233831, "avg_available_rate": 0.36970009550443067, "tight_count": 2, "pressure_label": "中等"}}, {"type": "Feature", "geometry": {"type": "Polygon", "coordinates": [[[121.536, 25.176000000000002], [121.548, 25.176000000000002], [121.548, 25.188000000000002], [121.536, 25.188000000000002], [121.536, 25.176000000000002]]]}, "properties": {"cell_id": "10128_2098", "city": "TPE", "area": "北投區", "lot_count": 3, "realtime_lot_count": 3, "total_capacity": 116, "realtime_capacity": 116, "total_available": 87, "utilization": 0.25, "avg_available_rate": 0.6388888888888888, "tight_count": 0, "pressure_label": "寬鬆"}}, {"type": "Feature", "geometry": {"type": "Polygon", "coordinates": [[[121.536, 25.152], [121.548, 25.152], [121.548, 25.164], [121.536, 25.164], [121.536, 25.152]]]}, "properties": {"cell_id": "10128_2096", "city": "TPE", "area": "北投區", "lot_count": 3, "realtime_lot_count": 3, "total_capacity": 355, "realtime_capacity": 355, "total_available": 121, "utilization": 0.6591549295774648, "avg_available_rate": 0.2974883733397666, "tight_count": 0, "pressure_label": "中等"}}, {"type": "Feature", "geometry": {"type": "Polygon", "coordinates": [[[121.572, 25.164], [121.584, 25.164], [121.584, 25.176000000000002], [121.572, 25.176000000000002], [121.572, 25.164]]]}, "properties": {"cell_id": "10131_2097", "city": "TPE", "area": "士林區", "lot_count": 1, "realtime_lot_count": 1, "total_capacity": 81, "realtime_capacity": 81, "total_available": 0, "utilization": 1.0, "avg_available_rate": 0.0, "tight_count": 1, "pressure_label": "高壓"}}, {"type": "Feature", "geometry": {"type": "Polygon", "coordinates": [[[121.584, 25.068], [121.596, 25.068], [121.596, 25.080000000000002], [121.584, 25.080000000000002], [121.584, 25.068]]]}, "properties": {"cell_id": "10132_2089", "city": "TPE", "area": "內湖區", "lot_count": 7, "realtime_lot_count": 7, "total_capacity": 1104, "realtime_capacity": 1104, "total_available": 579, "utilization": 0.4755434782608695, "avg_available_rate": 0.38048378771798574, "tight_count": 1, "pressure_label": "中等"}}, {"type": "Feature", "geometry": {"type": "Polygon", "coordinates": [[[121.536, 25.008], [121.548, 25.008], [121.548, 25.02], [121.536, 25.02], [121.536, 25.008]]]}, "properties": {"cell_id": "10128_2084", "city": "TPE", "area": "大安區", "lot_count": 6, "realtime_lot_count": 6, "total_capacity": 1156, "realtime_capacity": 1156, "total_available": 664, "utilization": 0.4256055363321799, "avg_available_rate": 0.4967276678868556, "tight_count": 0, "pressure_label": "寬鬆"}}, {"type": "Feature", "geometry": {"type": "Polygon", "coordinates": [[[121.5, 25.14], [121.512, 25.14], [121.512, 25.152], [121.5, 25.152], [121.5, 25.14]]]}, "properties": {"cell_id": "10125_2095", "city": "TPE", "area": "北投區", "lot_count": 3, "realtime_lot_count": 3, "total_capacity": 130, "realtime_capacity": 130, "total_available": 40, "utilization": 0.6923076923076923, "avg_available_rate": 0.3658014742628686, "tight_count": 0, "pressure_label": "中等"}}, {"type": "Feature", "geometry": {"type": "Polygon", "coordinates": [[[121.464, 25.116], [121.476, 25.116], [121.476, 25.128], [121.464, 25.128], [121.464, 25.116]]]}, "properties": {"cell_id": "10122_2093", "city": "TPE", "area": "北投區", "lot_count": 7, "realtime_lot_count": 7, "total_capacity": 454, "realtime_capacity": 454, "total_available": 339, "utilization": 0.2533039647577092, "avg_available_rate": 0.5660208758564529, "tight_count": 2, "pressure_label": "寬鬆"}}, {"type": "Feature", "geometry": {"type": "Polygon", "coordinates": [[[121.536, 25.056], [121.548, 25.056], [121.548, 25.068], [121.536, 25.068], [121.536, 25.056]]]}, "properties": {"cell_id": "10128_2088", "city": "TPE", "area": "中山區", "lot_count": 19, "realtime_lot_count": 19, "total_capacity": 3172, "realtime_capacity": 3172, "total_available": 1451, "utilization": 0.5425598991172762, "avg_available_rate": 8.09349343450397, "tight_count": 8, "pressure_label": "中等"}}, {"type": "Feature", "geometry": {"type": "Polygon", "coordinates": [[[121.56, 25.080000000000002], [121.572, 25.080000000000002], [121.572, 25.092000000000002], [121.56, 25.092000000000002], [121.56, 25.080000000000002]]]}, "properties": {"cell_id": "10130_2090", "city": "TPE", "area": "內湖區", "lot_count": 17, "realtime_lot_count": 17, "total_capacity": 1341, "realtime_capacity": 1341, "total_available": 704, "utilization": 0.47501864280387773, "avg_available_rate": 0.6010343838917916, "tight_count": 3, "pressure_label": "中等"}}, {"type": "Feature", "geometry": {"type": "Polygon", "coordinates": [[[121.596, 25.056], [121.608, 25.056], [121.608, 25.068], [121.596, 25.068], [121.596, 25.056]]]}, "properties": {"cell_id": "10133_2088", "city": "TPE", "area": "南港區", "lot_count": 1, "realtime_lot_count": 1, "total_capacity": 638, "realtime_capacity": 638, "total_available": 147, "utilization": 0.7695924764890282, "avg_available_rate": 0.2304075235109718, "tight_count": 0, "pressure_label": "偏高"}}, {"type": "Feature", "geometry": {"type": "Polygon", "coordinates": [[[121.572, 25.02], [121.584, 25.02], [121.584, 25.032], [121.572, 25.032], [121.572, 25.02]]]}, "properties": {"cell_id": "10131_2085", "city": "TPE", "area": "信義區", "lot_count": 2, "realtime_lot_count": 2, "total_capacity": 117, "realtime_capacity": 117, "total_available": 97, "utilization": 0.1709401709401709, "avg_available_rate": 0.8837209302325582, "tight_count": 0, "pressure_label": "寬鬆"}}, {"type": "Feature", "geometry": {"type": "Polygon", "coordinates": [[[121.572, 25.080000000000002], [121.584, 25.080000000000002], [121.584, 25.092000000000002], [121.572, 25.092000000000002], [121.572, 25.080000000000002]]]}, "properties": {"cell_id": "10131_2090", "city": "TPE", "area": "內湖區", "lot_count": 3, "realtime_lot_count": 3, "total_capacity": 313, "realtime_capacity": 313, "total_available": 100, "utilization": 0.6805111821086263, "avg_available_rate": 0.3231049350865019, "tight_count": 1, "pressure_label": "中等"}}, {"type": "Feature", "geometry": {"type": "Polygon", "coordinates": [[[121.608, 25.068], [121.62, 25.068], [121.62, 25.080000000000002], [121.608, 25.080000000000002], [121.608, 25.068]]]}, "properties": {"cell_id": "10134_2089", "city": "TPE", "area": "內湖區", "lot_count": 5, "realtime_lot_count": 5, "total_capacity": 887, "realtime_capacity": 887, "total_available": 148, "utilization": 0.8331454340473506, "avg_available_rate": 0.22340248674733512, "tight_count": 2, "pressure_label": "偏高"}}, {"type": "Feature", "geometry": {"type": "Polygon", "coordinates": [[[121.488, 25.02], [121.5, 25.02], [121.5, 25.032], [121.488, 25.032], [121.488, 25.02]]]}, "properties": {"cell_id": "10124_2085", "city": "TPE", "area": "萬華區", "lot_count": 8, "realtime_lot_count": 8, "total_capacity": 2373, "realtime_capacity": 2373, "total_available": 1008, "utilization": 0.5752212389380531, "avg_available_rate": 0.41973815147884797, "tight_count": 0, "pressure_label": "中等"}}, {"type": "Feature", "geometry": {"type": "Polygon", "coordinates": [[[121.596, 25.068], [121.608, 25.068], [121.608, 25.080000000000002], [121.596, 25.080000000000002], [121.596, 25.068]]]}, "properties": {"cell_id": "10133_2089", "city": "TPE", "area": "內湖區", "lot_count": 3, "realtime_lot_count": 3, "total_capacity": 587, "realtime_capacity": 587, "total_available": 54, "utilization": 0.9080068143100511, "avg_available_rate": 0.11719464613317486, "tight_count": 1, "pressure_label": "高壓"}}, {"type": "Feature", "geometry": {"type": "Polygon", "coordinates": [[[121.572, 25.068], [121.584, 25.068], [121.584, 25.080000000000002], [121.572, 25.080000000000002], [121.572, 25.068]]]}, "properties": {"cell_id": "10131_2089", "city": "TPE", "area": "內湖區", "lot_count": 12, "realtime_lot_count": 12, "total_capacity": 1264, "realtime_capacity": 1264, "total_available": 514, "utilization": 0.5933544303797469, "avg_available_rate": 0.5237840029654562, "tight_count": 0, "pressure_label": "中等"}}, {"type": "Feature", "geometry": {"type": "Polygon", "coordinates": [[[121.548, 25.032], [121.56, 25.032], [121.56, 25.044], [121.548, 25.044], [121.548, 25.032]]]}, "properties": {"cell_id": "10129_2086", "city": "TPE", "area": "大安區", "lot_count": 14, "realtime_lot_count": 14, "total_capacity": 945, "realtime_capacity": 945, "total_available": 302, "utilization": 0.6804232804232804, "avg_available_rate": 0.6397459827694277, "tight_count": 4, "pressure_label": "中等"}}, {"type": "Feature", "geometry": {"type": "Polygon", "coordinates": [[[121.5, 25.068], [121.512, 25.068], [121.512, 25.080000000000002], [121.5, 25.080000000000002], [121.5, 25.068]]]}, "properties": {"cell_id": "10125_2089", "city": "TPE", "area": "大同區", "lot_count": 6, "realtime_lot_count": 6, "total_capacity": 1723, "realtime_capacity": 1723, "total_available": 129, "utilization": 0.9251305861868834, "avg_available_rate": 0.05444388567195585, "tight_count": 4, "pressure_label": "高壓"}}, {"type": "Feature", "geometry": {"type": "Polygon", "coordinates": [[[121.548, 25.092], [121.56, 25.092], [121.56, 25.104], [121.548, 25.104], [121.548, 25.092]]]}, "properties": {"cell_id": "10129_2091", "city": "TPE", "area": "士林區", "lot_count": 1, "realtime_lot_count": 1, "total_capacity": 87, "realtime_capacity": 87, "total_available": 108, "utilization": -0.24137931034482762, "avg_available_rate": 1.2413793103448276, "tight_count": 0, "pressure_label": "寬鬆"}}, {"type": "Feature", "geometry": {"type": "Polygon", "coordinates": [[[121.452, 25.116], [121.464, 25.116], [121.464, 25.128], [121.452, 25.128], [121.452, 25.116]]]}, "properties": {"cell_id": "10121_2093", "city": "TPE", "area": "北投區", "lot_count": 1, "realtime_lot_count": 1, "total_capacity": 309, "realtime_capacity": 309, "total_available": 35, "utilization": 0.8867313915857605, "avg_available_rate": 0.11326860841423948, "tight_count": 0, "pressure_label": "偏高"}}, {"type": "Feature", "geometry": {"type": "Polygon", "coordinates": [[[121.488, 25.032], [121.5, 25.032], [121.5, 25.044], [121.488, 25.044], [121.488, 25.032]]]}, "properties": {"cell_id": "10124_2086", "city": "TPE", "area": "萬華區", "lot_count": 6, "realtime_lot_count": 6, "total_capacity": 1579, "realtime_capacity": 1579, "total_available": 170, "utilization": 0.8923369221025965, "avg_available_rate": 0.1250087229601549, "tight_count": 3, "pressure_label": "偏高"}}, {"type": "Feature", "geometry": {"type": "Polygon", "coordinates": [[[121.608, 25.056], [121.62, 25.056], [121.62, 25.068], [121.608, 25.068], [121.608, 25.056]]]}, "properties": {"cell_id": "10134_2088", "city": "TPE", "area": "南港區", "lot_count": 10, "realtime_lot_count": 10, "total_capacity": 5079, "realtime_capacity": 5079, "total_available": 2060, "utilization": 0.5944083481000197, "avg_available_rate": 0.4259681188041885, "tight_count": 1, "pressure_label": "中等"}}, {"type": "Feature", "geometry": {"type": "Polygon", "coordinates": [[[121.56, 25.02], [121.572, 25.02], [121.572, 25.032], [121.56, 25.032], [121.56, 25.02]]]}, "properties": {"cell_id": "10130_2085", "city": "TPE", "area": "信義區", "lot_count": 12, "realtime_lot_count": 12, "total_capacity": 1770, "realtime_capacity": 1770, "total_available": 573, "utilization": 0.676271186440678, "avg_available_rate": 0.31155042956789497, "tight_count": 3, "pressure_label": "中等"}}, {"type": "Feature", "geometry": {"type": "Polygon", "coordinates": [[[121.596, 25.044], [121.608, 25.044], [121.608, 25.056], [121.596, 25.056], [121.596, 25.044]]]}, "properties": {"cell_id": "10133_2087", "city": "TPE", "area": "南港區", "lot_count": 8, "realtime_lot_count": 8, "total_capacity": 2362, "realtime_capacity": 2362, "total_available": 539, "utilization": 0.7718035563082134, "avg_available_rate": 0.6834668192599122, "tight_count": 2, "pressure_label": "偏高"}}, {"type": "Feature", "geometry": {"type": "Polygon", "coordinates": [[[121.488, 25.104], [121.5, 25.104], [121.5, 25.116], [121.488, 25.116], [121.488, 25.104]]]}, "properties": {"cell_id": "10124_2092", "city": "TPE", "area": "北投區", "lot_count": 1, "realtime_lot_count": 1, "total_capacity": 88, "realtime_capacity": 88, "total_available": 48, "utilization": 0.4545454545454546, "avg_available_rate": 0.5454545454545454, "tight_count": 0, "pressure_label": "中等"}}, {"type": "Feature", "geometry": {"type": "Polygon", "coordinates": [[[121.56, 25.164], [121.572, 25.164], [121.572, 25.176000000000002], [121.56, 25.176000000000002], [121.56, 25.164]]]}, "properties": {"cell_id": "10130_2097", "city": "TPE", "area": "士林區", "lot_count": 3, "realtime_lot_count": 3, "total_capacity": 193, "realtime_capacity": 193, "total_available": 55, "utilization": 0.7150259067357513, "avg_available_rate": 0.36435095637223297, "tight_count": 2, "pressure_label": "偏高"}}, {"type": "Feature", "geometry": {"type": "Polygon", "coordinates": [[[121.584, 25.080000000000002], [121.596, 25.080000000000002], [121.596, 25.092000000000002], [121.584, 25.092000000000002], [121.584, 25.080000000000002]]]}, "properties": {"cell_id": "10132_2090", "city": "TPE", "area": "內湖區", "lot_count": 4, "realtime_lot_count": 4, "total_capacity": 781, "realtime_capacity": 781, "total_available": 218, "utilization": 0.7208706786171575, "avg_available_rate": 0.29532410571884254, "tight_count": 0, "pressure_label": "偏高"}}, {"type": "Feature", "geometry": {"type": "Polygon", "coordinates": [[[121.512, 25.02], [121.524, 25.02], [121.524, 25.032], [121.512, 25.032], [121.512, 25.02]]]}, "properties": {"cell_id": "10126_2085", "city": "TPE", "area": "中正區", "lot_count": 10, "realtime_lot_count": 10, "total_capacity": 223, "realtime_capacity": 223, "total_available": 55, "utilization": 0.7533632286995515, "avg_available_rate": 0.21711969350053323, "tight_count": 4, "pressure_label": "偏高"}}, {"type": "Feature", "geometry": {"type": "Polygon", "coordinates": [[[121.56, 25.068], [121.572, 25.068], [121.572, 25.080000000000002], [121.56, 25.080000000000002], [121.56, 25.068]]]}, "properties": {"cell_id": "10130_2089", "city": "TPE", "area": "內湖區", "lot_count": 11, "realtime_lot_count": 11, "total_capacity": 1172, "realtime_capacity": 1172, "total_available": 792, "utilization": 0.32423208191126285, "avg_available_rate": 0.6222187257678129, "tight_count": 1, "pressure_label": "寬鬆"}}, {"type": "Feature", "geometry": {"type": "Polygon", "coordinates": [[[121.5, 25.056], [121.512, 25.056], [121.512, 25.068], [121.5, 25.068], [121.5, 25.056]]]}, "properties": {"cell_id": "10125_2088", "city": "TPE", "area": "大同區", "lot_count": 3, "realtime_lot_count": 3, "total_capacity": 404, "realtime_capacity": 404, "total_available": 5, "utilization": 0.9876237623762376, "avg_available_rate": 0.005393743257820927, "tight_count": 3, "pressure_label": "高壓"}}, {"type": "Feature", "geometry": {"type": "Polygon", "coordinates": [[[121.62, 25.056], [121.632, 25.056], [121.632, 25.068], [121.62, 25.068], [121.62, 25.056]]]}, "properties": {"cell_id": "10135_2088", "city": "TPE", "area": "南港區", "lot_count": 2, "realtime_lot_count": 2, "total_capacity": 1169, "realtime_capacity": 1169, "total_available": 861, "utilization": 0.26347305389221554, "avg_available_rate": 0.7258519889535225, "tight_count": 0, "pressure_label": "寬鬆"}}, {"type": "Feature", "geometry": {"type": "Polygon", "coordinates": [[[121.512, 25.104], [121.524, 25.104], [121.524, 25.116], [121.512, 25.116], [121.512, 25.104]]]}, "properties": {"cell_id": "10126_2092", "city": "TPE", "area": "北投區", "lot_count": 7, "realtime_lot_count": 7, "total_capacity": 1121, "realtime_capacity": 1121, "total_available": 338, "utilization": 0.6984834968777878, "avg_available_rate": 0.20808842705780792, "tight_count": 2, "pressure_label": "中等"}}, {"type": "Feature", "geometry": {"type": "Polygon", "coordinates": [[[121.536, 25.116], [121.548, 25.116], [121.548, 25.128], [121.536, 25.128], [121.536, 25.116]]]}, "properties": {"cell_id": "10128_2093", "city": "TPE", "area": "士林區", "lot_count": 1, "realtime_lot_count": 1, "total_capacity": 472, "realtime_capacity": 472, "total_available": 0, "utilization": 1.0, "avg_available_rate": 0.0, "tight_count": 1, "pressure_label": "高壓"}}, {"type": "Feature", "geometry": {"type": "Polygon", "coordinates": [[[121.536, 25.068], [121.548, 25.068], [121.548, 25.080000000000002], [121.536, 25.080000000000002], [121.536, 25.068]]]}, "properties": {"cell_id": "10128_2089", "city": "TPE", "area": "中山區", "lot_count": 1, "realtime_lot_count": 1, "total_capacity": 606, "realtime_capacity": 606, "total_available": 55, "utilization": 0.9092409240924092, "avg_available_rate": 0.09075907590759076, "tight_count": 1, "pressure_label": "高壓"}}, {"type": "Feature", "geometry": {"type": "Polygon", "coordinates": [[[121.548, 25.080000000000002], [121.56, 25.080000000000002], [121.56, 25.092000000000002], [121.548, 25.092000000000002], [121.548, 25.080000000000002]]]}, "properties": {"cell_id": "10129_2090", "city": "TPE", "area": "中山區", "lot_count": 10, "realtime_lot_count": 10, "total_capacity": 612, "realtime_capacity": 612, "total_available": 273, "utilization": 0.553921568627451, "avg_available_rate": 0.4207543059337822, "tight_count": 2, "pressure_label": "中等"}}, {"type": "Feature", "geometry": {"type": "Polygon", "coordinates": [[[121.584, 25.032], [121.596, 25.032], [121.596, 25.044], [121.584, 25.044], [121.584, 25.032]]]}, "properties": {"cell_id": "10132_2086", "city": "TPE", "area": "南港區", "lot_count": 1, "realtime_lot_count": 1, "total_capacity": 412, "realtime_capacity": 412, "total_available": 87, "utilization": 0.7888349514563107, "avg_available_rate": 0.2111650485436893, "tight_count": 0, "pressure_label": "偏高"}}, {"type": "Feature", "geometry": {"type": "Polygon", "coordinates": [[[121.572, 25.056], [121.584, 25.056], [121.584, 25.068], [121.572, 25.068], [121.572, 25.056]]]}, "properties": {"cell_id": "10131_2088", "city": "TPE", "area": "內湖區", "lot_count": 15, "realtime_lot_count": 15, "total_capacity": 2535, "realtime_capacity": 2535, "total_available": 2224, "utilization": 0.12268244575936882, "avg_available_rate": 1.3955689838811074, "tight_count": 2, "pressure_label": "寬鬆"}}, {"type": "Feature", "geometry": {"type": "Polygon", "coordinates": [[[121.572, 24.984], [121.584, 24.984], [121.584, 24.996000000000002], [121.572, 24.996000000000002], [121.572, 24.984]]]}, "properties": {"cell_id": "10131_2082", "city": "TPE", "area": "文山區", "lot_count": 3, "realtime_lot_count": 3, "total_capacity": 275, "realtime_capacity": 275, "total_available": 60, "utilization": 0.7818181818181819, "avg_available_rate": 0.4503136348629911, "tight_count": 0, "pressure_label": "偏高"}}, {"type": "Feature", "geometry": {"type": "Polygon", "coordinates": [[[121.608, 25.032], [121.62, 25.032], [121.62, 25.044], [121.608, 25.044], [121.608, 25.032]]]}, "properties": {"cell_id": "10134_2086", "city": "TPE", "area": "南港區", "lot_count": 2, "realtime_lot_count": 2, "total_capacity": 96, "realtime_capacity": 96, "total_available": 63, "utilization": 0.34375, "avg_available_rate": 0.967540202501489, "tight_count": 0, "pressure_label": "寬鬆"}}, {"type": "Feature", "geometry": {"type": "Polygon", "coordinates": [[[121.596, 25.080000000000002], [121.608, 25.080000000000002], [121.608, 25.092000000000002], [121.596, 25.092000000000002], [121.596, 25.080000000000002]]]}, "properties": {"cell_id": "10133_2090", "city": "TPE", "area": "內湖區", "lot_count": 1, "realtime_lot_count": 1, "total_capacity": 221, "realtime_capacity": 221, "total_available": 32, "utilization": 0.8552036199095022, "avg_available_rate": 0.14479638009049775, "tight_count": 0, "pressure_label": "偏高"}}, {"type": "Feature", "geometry": {"type": "Polygon", "coordinates": [[[121.584, 25.056], [121.596, 25.056], [121.596, 25.068], [121.584, 25.068], [121.584, 25.056]]]}, "properties": {"cell_id": "10132_2088", "city": "TPE", "area": "內湖區", "lot_count": 13, "realtime_lot_count": 13, "total_capacity": 1317, "realtime_capacity": 1317, "total_available": 680, "utilization": 0.48367501898253606, "avg_available_rate": 0.550217780095814, "tight_count": 3, "pressure_label": "中等"}}, {"type": "Feature", "geometry": {"type": "Polygon", "coordinates": [[[121.536, 24.984], [121.548, 24.984], [121.548, 24.996000000000002], [121.536, 24.996000000000002], [121.536, 24.984]]]}, "properties": {"cell_id": "10128_2082", "city": "TPE", "area": "文山區", "lot_count": 5, "realtime_lot_count": 5, "total_capacity": 548, "realtime_capacity": 548, "total_available": 275, "utilization": 0.49817518248175185, "avg_available_rate": 0.3121590715139102, "tight_count": 2, "pressure_label": "中等"}}, {"type": "Feature", "geometry": {"type": "Polygon", "coordinates": [[[121.476, 25.128], [121.488, 25.128], [121.488, 25.14], [121.476, 25.14], [121.476, 25.128]]]}, "properties": {"cell_id": "10123_2094", "city": "TPE", "area": "北投區", "lot_count": 2, "realtime_lot_count": 2, "total_capacity": 136, "realtime_capacity": 136, "total_available": 18, "utilization": 0.8676470588235294, "avg_available_rate": 0.1388888888888889, "tight_count": 1, "pressure_label": "偏高"}}, {"type": "Feature", "geometry": {"type": "Polygon", "coordinates": [[[121.608, 25.044], [121.62, 25.044], [121.62, 25.056], [121.608, 25.056], [121.608, 25.044]]]}, "properties": {"cell_id": "10134_2087", "city": "TPE", "area": "南港區", "lot_count": 2, "realtime_lot_count": 2, "total_capacity": 76, "realtime_capacity": 76, "total_available": 38, "utilization": 0.5, "avg_available_rate": 0.3476190476190476, "tight_count": 0, "pressure_label": "中等"}}, {"type": "Feature", "geometry": {"type": "Polygon", "coordinates": [[[121.548, 24.984], [121.56, 24.984], [121.56, 24.996000000000002], [121.548, 24.996000000000002], [121.548, 24.984]]]}, "properties": {"cell_id": "10129_2082", "city": "TPE", "area": "文山區", "lot_count": 6, "realtime_lot_count": 6, "total_capacity": 529, "realtime_capacity": 529, "total_available": 167, "utilization": 0.6843100189035917, "avg_available_rate": 0.30101929548979894, "tight_count": 1, "pressure_label": "中等"}}, {"type": "Feature", "geometry": {"type": "Polygon", "coordinates": [[[121.536, 25.128], [121.548, 25.128], [121.548, 25.14], [121.536, 25.14], [121.536, 25.128]]]}, "properties": {"cell_id": "10128_2094", "city": "TPE", "area": "士林區", "lot_count": 4, "realtime_lot_count": 4, "total_capacity": 77, "realtime_capacity": 77, "total_available": 95, "utilization": -0.23376623376623384, "avg_available_rate": 1.9596088435374148, "tight_count": 0, "pressure_label": "寬鬆"}}, {"type": "Feature", "geometry": {"type": "Polygon", "coordinates": [[[121.548, 24.972], [121.56, 24.972], [121.56, 24.984], [121.548, 24.984], [121.548, 24.972]]]}, "properties": {"cell_id": "10129_2081", "city": "TPE", "area": "文山區", "lot_count": 3, "realtime_lot_count": 3, "total_capacity": 487, "realtime_capacity": 487, "total_available": 150, "utilization": 0.6919917864476386, "avg_available_rate": 0.27533188204829995, "tight_count": 0, "pressure_label": "中等"}}, {"type": "Feature", "geometry": {"type": "Polygon", "coordinates": [[[121.524, 25.080000000000002], [121.536, 25.080000000000002], [121.536, 25.092000000000002], [121.524, 25.092000000000002], [121.524, 25.080000000000002]]]}, "properties": {"cell_id": "10127_2090", "city": "TPE", "area": "士林區", "lot_count": 1, "realtime_lot_count": 1, "total_capacity": 8, "realtime_capacity": 8, "total_available": 4, "utilization": 0.5, "avg_available_rate": 0.5, "tight_count": 0, "pressure_label": "中等"}}, {"type": "Feature", "geometry": {"type": "Polygon", "coordinates": [[[121.5, 25.104], [121.512, 25.104], [121.512, 25.116], [121.5, 25.116], [121.5, 25.104]]]}, "properties": {"cell_id": "10125_2092", "city": "TPE", "area": "北投區", "lot_count": 1, "realtime_lot_count": 1, "total_capacity": 6, "realtime_capacity": 6, "total_available": 1, "utilization": 0.8333333333333334, "avg_available_rate": 0.16666666666666666, "tight_count": 0, "pressure_label": "偏高"}}, {"type": "Feature", "geometry": {"type": "Polygon", "coordinates": [[[121.62, 25.068], [121.632, 25.068], [121.632, 25.080000000000002], [121.62, 25.080000000000002], [121.62, 25.068]]]}, "properties": {"cell_id": "10135_2089", "city": "TPE", "area": "內湖區", "lot_count": 2, "realtime_lot_count": 2, "total_capacity": 252, "realtime_capacity": 252, "total_available": 116, "utilization": 0.5396825396825398, "avg_available_rate": 0.4628019323671497, "tight_count": 0, "pressure_label": "中等"}}]}